<?xml version="1.0" encoding="UTF-8"?>
<gpx xmlns="http://www.topografix.com/GPX/1/1" xmlns:gpxtpx="http://www.garmin.com/xmlschemas/TrackPointExtension/v1" xmlns:xsi="http://www.w3.org/2001/XMLSchema-instance" xsi:schemaLocation="http://www.topografix.com/GPX/1/1 http://www.topografix.com/GPX/1/1/gpx.xsd" version="1.1" creator="gpx.py -- https://github.com/tkrajina/gpxpy">
  <trk>
    <name>gpx from joyrun 1778309600</name>
    <trkseg>
      <trkpt lat="23.117707" lon="113.313064">
        <ele>7.68</ele>
        <time>2026-05-09T06:53:20Z</time>
        <extensions>
          <gpxtpx:TrackPointExtension></gpxtpx:TrackPointExtension>
        </extensions>
      </trkpt>
      <trkpt lat="23.117595" lon="113.313053">
        <ele>7.81</ele>
        <time>2026-05-09T06:53:25Z</time>
        <extensions>
          <gpxtpx:TrackPointExtension></gpxtpx:TrackPointExtension>
        </extensions>
      </trkpt>
      <trkpt lat="23.117592" lon="113.313035">
        <ele>7.83</ele>
        <time>2026-05-09T06:53:30Z</time>
        <extensions>
          <gpxtpx:TrackPointExtension></gpxtpx:TrackPointExtension>
        </extensions>
      </trkpt>
      <trkpt lat="23.117524" lon="113.312997">
        <ele>7.8</ele>
        <time>2026-05-09T06:53:35Z</time>
        <extensions>
          <gpxtpx:TrackPointExtension></gpxtpx:TrackPointExtension>
        </extensions>
      </trkpt>
      <trkpt lat="23.117413" lon="113.313008">
        <ele>7.8</ele>
        <time>2026-05-09T06:53:40Z</time>
        <extensions>
          <gpxtpx:TrackPointExtension></gpxtpx:TrackPointExtension>
        </extensions>
      </trkpt>
      <trkpt lat="23.117238" lon="113.312888">
        <ele>7.94</ele>
        <time>2026-05-09T06:53:45Z</time>
        <extensions>
          <gpxtpx:TrackPointExtension></gpxtpx:TrackPointExtension>
        </extensions>
      </trkpt>
      <trkpt lat="23.117097" lon="113.313152">
        <ele>7.99</ele>
        <time>2026-05-09T06:53:50Z</time>
        <extensions>
          <gpxtpx:TrackPointExtension></gpxtpx:TrackPointExtension>
        </extensions>
      </trkpt>
      <trkpt lat="23.117041" lon="113.313315">
        <ele>8.26</ele>
        <time>2026-05-09T06:53:55Z</time>
        <extensions>
          <gpxtpx:TrackPointExtension></gpxtpx:TrackPointExtension>
        </extensions>
      </trkpt>
      <trkpt lat="23.117016" lon="113.313471">
        <ele>8.29</ele>
        <time>2026-05-09T06:54:00Z</time>
        <extensions>
          <gpxtpx:TrackPointExtension></gpxtpx:TrackPointExtension>
        </extensions>
      </trkpt>
      <trkpt lat="23.116996" lon="113.313612">
        <ele>8.03</ele>
        <time>2026-05-09T06:54:05Z</time>
        <extensions>
          <gpxtpx:TrackPointExtension></gpxtpx:TrackPointExtension>
        </extensions>
      </trkpt>
      <trkpt lat="23.116942" lon="113.313695">
        <ele>8.15</ele>
        <time>2026-05-09T06:54:10Z</time>
        <extensions>
          <gpxtpx:TrackPointExtension></gpxtpx:TrackPointExtension>
        </extensions>
      </trkpt>
      <trkpt lat="23.117017" lon="113.313846">
        <ele>8.2</ele>
        <time>2026-05-09T06:54:15Z</time>
        <extensions>
          <gpxtpx:TrackPointExtension></gpxtpx:TrackPointExtension>
        </extensions>
      </trkpt>
      <trkpt lat="23.116985" lon="113.313966">
        <ele>8.08</ele>
        <time>2026-05-09T06:54:20Z</time>
        <extensions>
          <gpxtpx:TrackPointExtension></gpxtpx:TrackPointExtension>
        </extensions>
      </trkpt>
      <trkpt lat="23.116953" lon="113.314089">
        <ele>8.2</ele>
        <time>2026-05-09T06:54:25Z</time>
        <extensions>
          <gpxtpx:TrackPointExtension></gpxtpx:TrackPointExtension>
        </extensions>
      </trkpt>
      <trkpt lat="23.116901" lon="113.314195">
        <ele>8.21</ele>
        <time>2026-05-09T06:54:30Z</time>
        <extensions>
          <gpxtpx:TrackPointExtension></gpxtpx:TrackPointExtension>
        </extensions>
      </trkpt>
      <trkpt lat="23.116861" lon="113.314305">
        <ele>8.21</ele>
        <time>2026-05-09T06:54:35Z</time>
        <extensions>
          <gpxtpx:TrackPointExtension></gpxtpx:TrackPointExtension>
        </extensions>
      </trkpt>
      <trkpt lat="23.116934" lon="113.314482">
        <ele>8.39</ele>
        <time>2026-05-09T06:54:40Z</time>
        <extensions>
          <gpxtpx:TrackPointExtension></gpxtpx:TrackPointExtension>
        </extensions>
      </trkpt>
      <trkpt lat="23.117018" lon="113.31468">
        <ele>8.33</ele>
        <time>2026-05-09T06:54:45Z</time>
        <extensions>
          <gpxtpx:TrackPointExtension></gpxtpx:TrackPointExtension>
        </extensions>
      </trkpt>
      <trkpt lat="23.116976" lon="113.314813">
        <ele>8.31</ele>
        <time>2026-05-09T06:54:50Z</time>
        <extensions>
          <gpxtpx:TrackPointExtension></gpxtpx:TrackPointExtension>
        </extensions>
      </trkpt>
      <trkpt lat="23.116963" lon="113.314958">
        <ele>8.22</ele>
        <time>2026-05-09T06:54:55Z</time>
        <extensions>
          <gpxtpx:TrackPointExtension></gpxtpx:TrackPointExtension>
        </extensions>
      </trkpt>
      <trkpt lat="23.116968" lon="113.315084">
        <ele>8.23</ele>
        <time>2026-05-09T06:55:00Z</time>
        <extensions>
          <gpxtpx:TrackPointExtension></gpxtpx:TrackPointExtension>
        </extensions>
      </trkpt>
      <trkpt lat="23.116986" lon="113.315228">
        <ele>8.16</ele>
        <time>2026-05-09T06:55:05Z</time>
        <extensions>
          <gpxtpx:TrackPointExtension></gpxtpx:TrackPointExtension>
        </extensions>
      </trkpt>
      <trkpt lat="23.116976" lon="113.31535">
        <ele>7.77</ele>
        <time>2026-05-09T06:55:10Z</time>
        <extensions>
          <gpxtpx:TrackPointExtension></gpxtpx:TrackPointExtension>
        </extensions>
      </trkpt>
      <trkpt lat="23.116902" lon="113.315454">
        <ele>8.11</ele>
        <time>2026-05-09T06:55:15Z</time>
        <extensions>
          <gpxtpx:TrackPointExtension></gpxtpx:TrackPointExtension>
        </extensions>
      </trkpt>
      <trkpt lat="23.116853" lon="113.315596">
        <ele>8.3</ele>
        <time>2026-05-09T06:55:20Z</time>
        <extensions>
          <gpxtpx:TrackPointExtension></gpxtpx:TrackPointExtension>
        </extensions>
      </trkpt>
      <trkpt lat="23.116855" lon="113.315711">
        <ele>8.11</ele>
        <time>2026-05-09T06:55:25Z</time>
        <extensions>
          <gpxtpx:TrackPointExtension></gpxtpx:TrackPointExtension>
        </extensions>
      </trkpt>
      <trkpt lat="23.1169" lon="113.315793">
        <ele>8.18</ele>
        <time>2026-05-09T06:55:30Z</time>
        <extensions>
          <gpxtpx:TrackPointExtension></gpxtpx:TrackPointExtension>
        </extensions>
      </trkpt>
      <trkpt lat="23.116926" lon="113.315936">
        <ele>8.25</ele>
        <time>2026-05-09T06:55:35Z</time>
        <extensions>
          <gpxtpx:TrackPointExtension></gpxtpx:TrackPointExtension>
        </extensions>
      </trkpt>
      <trkpt lat="23.116954" lon="113.316066">
        <ele>8.64</ele>
        <time>2026-05-09T06:55:40Z</time>
        <extensions>
          <gpxtpx:TrackPointExtension></gpxtpx:TrackPointExtension>
        </extensions>
      </trkpt>
      <trkpt lat="23.116951" lon="113.316169">
        <ele>8.88</ele>
        <time>2026-05-09T06:55:45Z</time>
        <extensions>
          <gpxtpx:TrackPointExtension></gpxtpx:TrackPointExtension>
        </extensions>
      </trkpt>
      <trkpt lat="23.116944" lon="113.316289">
        <ele>8.92</ele>
        <time>2026-05-09T06:55:50Z</time>
        <extensions>
          <gpxtpx:TrackPointExtension></gpxtpx:TrackPointExtension>
        </extensions>
      </trkpt>
      <trkpt lat="23.116926" lon="113.31641">
        <ele>8.97</ele>
        <time>2026-05-09T06:55:55Z</time>
        <extensions>
          <gpxtpx:TrackPointExtension></gpxtpx:TrackPointExtension>
        </extensions>
      </trkpt>
      <trkpt lat="23.116923" lon="113.316582">
        <ele>8.91</ele>
        <time>2026-05-09T06:56:00Z</time>
        <extensions>
          <gpxtpx:TrackPointExtension></gpxtpx:TrackPointExtension>
        </extensions>
      </trkpt>
      <trkpt lat="23.116914" lon="113.316705">
        <ele>9.19</ele>
        <time>2026-05-09T06:56:05Z</time>
        <extensions>
          <gpxtpx:TrackPointExtension></gpxtpx:TrackPointExtension>
        </extensions>
      </trkpt>
      <trkpt lat="23.11691" lon="113.316833">
        <ele>9.12</ele>
        <time>2026-05-09T06:56:10Z</time>
        <extensions>
          <gpxtpx:TrackPointExtension></gpxtpx:TrackPointExtension>
        </extensions>
      </trkpt>
      <trkpt lat="23.116893" lon="113.316952">
        <ele>9.14</ele>
        <time>2026-05-09T06:56:15Z</time>
        <extensions>
          <gpxtpx:TrackPointExtension></gpxtpx:TrackPointExtension>
        </extensions>
      </trkpt>
      <trkpt lat="23.116889" lon="113.317079">
        <ele>9.12</ele>
        <time>2026-05-09T06:56:20Z</time>
        <extensions>
          <gpxtpx:TrackPointExtension></gpxtpx:TrackPointExtension>
        </extensions>
      </trkpt>
      <trkpt lat="23.116901" lon="113.317228">
        <ele>9.42</ele>
        <time>2026-05-09T06:56:25Z</time>
        <extensions>
          <gpxtpx:TrackPointExtension></gpxtpx:TrackPointExtension>
        </extensions>
      </trkpt>
      <trkpt lat="23.116931" lon="113.317359">
        <ele>9.7</ele>
        <time>2026-05-09T06:56:30Z</time>
        <extensions>
          <gpxtpx:TrackPointExtension></gpxtpx:TrackPointExtension>
        </extensions>
      </trkpt>
      <trkpt lat="23.116931" lon="113.317496">
        <ele>9.81</ele>
        <time>2026-05-09T06:56:35Z</time>
        <extensions>
          <gpxtpx:TrackPointExtension></gpxtpx:TrackPointExtension>
        </extensions>
      </trkpt>
      <trkpt lat="23.116918" lon="113.317622">
        <ele>9.95</ele>
        <time>2026-05-09T06:56:40Z</time>
        <extensions>
          <gpxtpx:TrackPointExtension></gpxtpx:TrackPointExtension>
        </extensions>
      </trkpt>
      <trkpt lat="23.116897" lon="113.317779">
        <ele>9.88</ele>
        <time>2026-05-09T06:56:45Z</time>
        <extensions>
          <gpxtpx:TrackPointExtension></gpxtpx:TrackPointExtension>
        </extensions>
      </trkpt>
      <trkpt lat="23.116886" lon="113.317903">
        <ele>10.17</ele>
        <time>2026-05-09T06:56:50Z</time>
        <extensions>
          <gpxtpx:TrackPointExtension></gpxtpx:TrackPointExtension>
        </extensions>
      </trkpt>
      <trkpt lat="23.116877" lon="113.318032">
        <ele>10.23</ele>
        <time>2026-05-09T06:56:55Z</time>
        <extensions>
          <gpxtpx:TrackPointExtension></gpxtpx:TrackPointExtension>
        </extensions>
      </trkpt>
      <trkpt lat="23.116882" lon="113.318166">
        <ele>10.35</ele>
        <time>2026-05-09T06:57:00Z</time>
        <extensions>
          <gpxtpx:TrackPointExtension></gpxtpx:TrackPointExtension>
        </extensions>
      </trkpt>
      <trkpt lat="23.11684" lon="113.318307">
        <ele>10.07</ele>
        <time>2026-05-09T06:57:05Z</time>
        <extensions>
          <gpxtpx:TrackPointExtension></gpxtpx:TrackPointExtension>
        </extensions>
      </trkpt>
      <trkpt lat="23.116823" lon="113.31845">
        <ele>9.96</ele>
        <time>2026-05-09T06:57:10Z</time>
        <extensions>
          <gpxtpx:TrackPointExtension></gpxtpx:TrackPointExtension>
        </extensions>
      </trkpt>
      <trkpt lat="23.116802" lon="113.318579">
        <ele>10.11</ele>
        <time>2026-05-09T06:57:15Z</time>
        <extensions>
          <gpxtpx:TrackPointExtension></gpxtpx:TrackPointExtension>
        </extensions>
      </trkpt>
      <trkpt lat="23.11679" lon="113.318716">
        <ele>10.55</ele>
        <time>2026-05-09T06:57:20Z</time>
        <extensions>
          <gpxtpx:TrackPointExtension></gpxtpx:TrackPointExtension>
        </extensions>
      </trkpt>
      <trkpt lat="23.116834" lon="113.318818">
        <ele>10.42</ele>
        <time>2026-05-09T06:57:25Z</time>
        <extensions>
          <gpxtpx:TrackPointExtension></gpxtpx:TrackPointExtension>
        </extensions>
      </trkpt>
      <trkpt lat="23.117007" lon="113.318858">
        <ele>10.33</ele>
        <time>2026-05-09T06:57:30Z</time>
        <extensions>
          <gpxtpx:TrackPointExtension></gpxtpx:TrackPointExtension>
        </extensions>
      </trkpt>
      <trkpt lat="23.117137" lon="113.318863">
        <ele>10.43</ele>
        <time>2026-05-09T06:57:35Z</time>
        <extensions>
          <gpxtpx:TrackPointExtension></gpxtpx:TrackPointExtension>
        </extensions>
      </trkpt>
      <trkpt lat="23.117282" lon="113.318862">
        <ele>10.34</ele>
        <time>2026-05-09T06:57:40Z</time>
        <extensions>
          <gpxtpx:TrackPointExtension></gpxtpx:TrackPointExtension>
        </extensions>
      </trkpt>
      <trkpt lat="23.117408" lon="113.318863">
        <ele>10.36</ele>
        <time>2026-05-09T06:57:45Z</time>
        <extensions>
          <gpxtpx:TrackPointExtension></gpxtpx:TrackPointExtension>
        </extensions>
      </trkpt>
      <trkpt lat="23.117543" lon="113.318866">
        <ele>10.35</ele>
        <time>2026-05-09T06:57:50Z</time>
        <extensions>
          <gpxtpx:TrackPointExtension></gpxtpx:TrackPointExtension>
        </extensions>
      </trkpt>
      <trkpt lat="23.117665" lon="113.318863">
        <ele>10.23</ele>
        <time>2026-05-09T06:57:55Z</time>
        <extensions>
          <gpxtpx:TrackPointExtension></gpxtpx:TrackPointExtension>
        </extensions>
      </trkpt>
      <trkpt lat="23.117793" lon="113.31887">
        <ele>10.29</ele>
        <time>2026-05-09T06:58:00Z</time>
        <extensions>
          <gpxtpx:TrackPointExtension></gpxtpx:TrackPointExtension>
        </extensions>
      </trkpt>
      <trkpt lat="23.117931" lon="113.31885">
        <ele>10.27</ele>
        <time>2026-05-09T06:58:05Z</time>
        <extensions>
          <gpxtpx:TrackPointExtension></gpxtpx:TrackPointExtension>
        </extensions>
      </trkpt>
      <trkpt lat="23.118061" lon="113.318843">
        <ele>10.3</ele>
        <time>2026-05-09T06:58:10Z</time>
        <extensions>
          <gpxtpx:TrackPointExtension></gpxtpx:TrackPointExtension>
        </extensions>
      </trkpt>
      <trkpt lat="23.118185" lon="113.318843">
        <ele>10.2</ele>
        <time>2026-05-09T06:58:15Z</time>
        <extensions>
          <gpxtpx:TrackPointExtension></gpxtpx:TrackPointExtension>
        </extensions>
      </trkpt>
      <trkpt lat="23.118319" lon="113.318834">
        <ele>9.9</ele>
        <time>2026-05-09T06:58:20Z</time>
        <extensions>
          <gpxtpx:TrackPointExtension></gpxtpx:TrackPointExtension>
        </extensions>
      </trkpt>
      <trkpt lat="23.118454" lon="113.318832">
        <ele>9.99</ele>
        <time>2026-05-09T06:58:25Z</time>
        <extensions>
          <gpxtpx:TrackPointExtension></gpxtpx:TrackPointExtension>
        </extensions>
      </trkpt>
      <trkpt lat="23.118575" lon="113.318838">
        <ele>9.84</ele>
        <time>2026-05-09T06:58:30Z</time>
        <extensions>
          <gpxtpx:TrackPointExtension></gpxtpx:TrackPointExtension>
        </extensions>
      </trkpt>
      <trkpt lat="23.118705" lon="113.318837">
        <ele>10.21</ele>
        <time>2026-05-09T06:58:35Z</time>
        <extensions>
          <gpxtpx:TrackPointExtension></gpxtpx:TrackPointExtension>
        </extensions>
      </trkpt>
      <trkpt lat="23.11883" lon="113.31885">
        <ele>10.15</ele>
        <time>2026-05-09T06:58:40Z</time>
        <extensions>
          <gpxtpx:TrackPointExtension></gpxtpx:TrackPointExtension>
        </extensions>
      </trkpt>
      <trkpt lat="23.118946" lon="113.318873">
        <ele>10.37</ele>
        <time>2026-05-09T06:58:45Z</time>
        <extensions>
          <gpxtpx:TrackPointExtension></gpxtpx:TrackPointExtension>
        </extensions>
      </trkpt>
      <trkpt lat="23.119067" lon="113.31888">
        <ele>10.05</ele>
        <time>2026-05-09T06:58:50Z</time>
        <extensions>
          <gpxtpx:TrackPointExtension></gpxtpx:TrackPointExtension>
        </extensions>
      </trkpt>
      <trkpt lat="23.119178" lon="113.318869">
        <ele>10.12</ele>
        <time>2026-05-09T06:58:55Z</time>
        <extensions>
          <gpxtpx:TrackPointExtension></gpxtpx:TrackPointExtension>
        </extensions>
      </trkpt>
      <trkpt lat="23.119288" lon="113.318889">
        <ele>10.14</ele>
        <time>2026-05-09T06:59:00Z</time>
        <extensions>
          <gpxtpx:TrackPointExtension></gpxtpx:TrackPointExtension>
        </extensions>
      </trkpt>
      <trkpt lat="23.11939" lon="113.318937">
        <ele>10.07</ele>
        <time>2026-05-09T06:59:05Z</time>
        <extensions>
          <gpxtpx:TrackPointExtension></gpxtpx:TrackPointExtension>
        </extensions>
      </trkpt>
      <trkpt lat="23.119523" lon="113.318939">
        <ele>10.07</ele>
        <time>2026-05-09T06:59:10Z</time>
        <extensions>
          <gpxtpx:TrackPointExtension></gpxtpx:TrackPointExtension>
        </extensions>
      </trkpt>
      <trkpt lat="23.119632" lon="113.318947">
        <ele>10.01</ele>
        <time>2026-05-09T06:59:15Z</time>
        <extensions>
          <gpxtpx:TrackPointExtension></gpxtpx:TrackPointExtension>
        </extensions>
      </trkpt>
      <trkpt lat="23.11977" lon="113.318952">
        <ele>10.12</ele>
        <time>2026-05-09T06:59:20Z</time>
        <extensions>
          <gpxtpx:TrackPointExtension></gpxtpx:TrackPointExtension>
        </extensions>
      </trkpt>
      <trkpt lat="23.119921" lon="113.318919">
        <ele>10.19</ele>
        <time>2026-05-09T06:59:25Z</time>
        <extensions>
          <gpxtpx:TrackPointExtension></gpxtpx:TrackPointExtension>
        </extensions>
      </trkpt>
      <trkpt lat="23.120031" lon="113.318959">
        <ele>10.09</ele>
        <time>2026-05-09T06:59:30Z</time>
        <extensions>
          <gpxtpx:TrackPointExtension></gpxtpx:TrackPointExtension>
        </extensions>
      </trkpt>
      <trkpt lat="23.120178" lon="113.318941">
        <ele>10.06</ele>
        <time>2026-05-09T06:59:35Z</time>
        <extensions>
          <gpxtpx:TrackPointExtension></gpxtpx:TrackPointExtension>
        </extensions>
      </trkpt>
      <trkpt lat="23.120314" lon="113.318937">
        <ele>10.12</ele>
        <time>2026-05-09T06:59:40Z</time>
        <extensions>
          <gpxtpx:TrackPointExtension></gpxtpx:TrackPointExtension>
        </extensions>
      </trkpt>
      <trkpt lat="23.120438" lon="113.318877">
        <ele>10.05</ele>
        <time>2026-05-09T06:59:45Z</time>
        <extensions>
          <gpxtpx:TrackPointExtension></gpxtpx:TrackPointExtension>
        </extensions>
      </trkpt>
      <trkpt lat="23.120554" lon="113.318913">
        <ele>9.99</ele>
        <time>2026-05-09T06:59:50Z</time>
        <extensions>
          <gpxtpx:TrackPointExtension></gpxtpx:TrackPointExtension>
        </extensions>
      </trkpt>
      <trkpt lat="23.120683" lon="113.318921">
        <ele>9.82</ele>
        <time>2026-05-09T06:59:55Z</time>
        <extensions>
          <gpxtpx:TrackPointExtension></gpxtpx:TrackPointExtension>
        </extensions>
      </trkpt>
      <trkpt lat="23.120818" lon="113.318911">
        <ele>9.8</ele>
        <time>2026-05-09T07:00:00Z</time>
        <extensions>
          <gpxtpx:TrackPointExtension></gpxtpx:TrackPointExtension>
        </extensions>
      </trkpt>
      <trkpt lat="23.120927" lon="113.31895">
        <ele>9.91</ele>
        <time>2026-05-09T07:00:05Z</time>
        <extensions>
          <gpxtpx:TrackPointExtension></gpxtpx:TrackPointExtension>
        </extensions>
      </trkpt>
      <trkpt lat="23.121032" lon="113.31898">
        <ele>9.93</ele>
        <time>2026-05-09T07:00:10Z</time>
        <extensions>
          <gpxtpx:TrackPointExtension></gpxtpx:TrackPointExtension>
        </extensions>
      </trkpt>
      <trkpt lat="23.121162" lon="113.318992">
        <ele>10.07</ele>
        <time>2026-05-09T07:00:15Z</time>
        <extensions>
          <gpxtpx:TrackPointExtension></gpxtpx:TrackPointExtension>
        </extensions>
      </trkpt>
      <trkpt lat="23.121308" lon="113.318982">
        <ele>10.1</ele>
        <time>2026-05-09T07:00:20Z</time>
        <extensions>
          <gpxtpx:TrackPointExtension></gpxtpx:TrackPointExtension>
        </extensions>
      </trkpt>
      <trkpt lat="23.121419" lon="113.318997">
        <ele>10.13</ele>
        <time>2026-05-09T07:00:25Z</time>
        <extensions>
          <gpxtpx:TrackPointExtension></gpxtpx:TrackPointExtension>
        </extensions>
      </trkpt>
      <trkpt lat="23.121542" lon="113.319006">
        <ele>10.09</ele>
        <time>2026-05-09T07:00:30Z</time>
        <extensions>
          <gpxtpx:TrackPointExtension></gpxtpx:TrackPointExtension>
        </extensions>
      </trkpt>
      <trkpt lat="23.121686" lon="113.319001">
        <ele>10.32</ele>
        <time>2026-05-09T07:00:35Z</time>
        <extensions>
          <gpxtpx:TrackPointExtension></gpxtpx:TrackPointExtension>
        </extensions>
      </trkpt>
      <trkpt lat="23.121838" lon="113.318958">
        <ele>10.23</ele>
        <time>2026-05-09T07:00:40Z</time>
        <extensions>
          <gpxtpx:TrackPointExtension></gpxtpx:TrackPointExtension>
        </extensions>
      </trkpt>
      <trkpt lat="23.121979" lon="113.318925">
        <ele>10.28</ele>
        <time>2026-05-09T07:00:45Z</time>
        <extensions>
          <gpxtpx:TrackPointExtension></gpxtpx:TrackPointExtension>
        </extensions>
      </trkpt>
      <trkpt lat="23.122121" lon="113.318933">
        <ele>10.31</ele>
        <time>2026-05-09T07:00:50Z</time>
        <extensions>
          <gpxtpx:TrackPointExtension></gpxtpx:TrackPointExtension>
        </extensions>
      </trkpt>
      <trkpt lat="23.122255" lon="113.318939">
        <ele>10.4</ele>
        <time>2026-05-09T07:00:55Z</time>
        <extensions>
          <gpxtpx:TrackPointExtension></gpxtpx:TrackPointExtension>
        </extensions>
      </trkpt>
      <trkpt lat="23.122379" lon="113.318963">
        <ele>10.42</ele>
        <time>2026-05-09T07:01:00Z</time>
        <extensions>
          <gpxtpx:TrackPointExtension></gpxtpx:TrackPointExtension>
        </extensions>
      </trkpt>
      <trkpt lat="23.122512" lon="113.318998">
        <ele>10.58</ele>
        <time>2026-05-09T07:01:05Z</time>
        <extensions>
          <gpxtpx:TrackPointExtension></gpxtpx:TrackPointExtension>
        </extensions>
      </trkpt>
      <trkpt lat="23.122654" lon="113.318997">
        <ele>10.7</ele>
        <time>2026-05-09T07:01:10Z</time>
        <extensions>
          <gpxtpx:TrackPointExtension></gpxtpx:TrackPointExtension>
        </extensions>
      </trkpt>
      <trkpt lat="23.122807" lon="113.318989">
        <ele>10.81</ele>
        <time>2026-05-09T07:01:15Z</time>
        <extensions>
          <gpxtpx:TrackPointExtension></gpxtpx:TrackPointExtension>
        </extensions>
      </trkpt>
      <trkpt lat="23.12292" lon="113.319003">
        <ele>10.82</ele>
        <time>2026-05-09T07:01:20Z</time>
        <extensions>
          <gpxtpx:TrackPointExtension></gpxtpx:TrackPointExtension>
        </extensions>
      </trkpt>
      <trkpt lat="23.12305" lon="113.318999">
        <ele>10.77</ele>
        <time>2026-05-09T07:01:25Z</time>
        <extensions>
          <gpxtpx:TrackPointExtension></gpxtpx:TrackPointExtension>
        </extensions>
      </trkpt>
      <trkpt lat="23.123178" lon="113.319016">
        <ele>10.74</ele>
        <time>2026-05-09T07:01:30Z</time>
        <extensions>
          <gpxtpx:TrackPointExtension></gpxtpx:TrackPointExtension>
        </extensions>
      </trkpt>
      <trkpt lat="23.123291" lon="113.319008">
        <ele>10.77</ele>
        <time>2026-05-09T07:01:35Z</time>
        <extensions>
          <gpxtpx:TrackPointExtension></gpxtpx:TrackPointExtension>
        </extensions>
      </trkpt>
      <trkpt lat="23.123397" lon="113.319045">
        <ele>10.81</ele>
        <time>2026-05-09T07:01:40Z</time>
        <extensions>
          <gpxtpx:TrackPointExtension></gpxtpx:TrackPointExtension>
        </extensions>
      </trkpt>
      <trkpt lat="23.123541" lon="113.319001">
        <ele>10.75</ele>
        <time>2026-05-09T07:01:45Z</time>
        <extensions>
          <gpxtpx:TrackPointExtension></gpxtpx:TrackPointExtension>
        </extensions>
      </trkpt>
      <trkpt lat="23.123673" lon="113.31897">
        <ele>10.99</ele>
        <time>2026-05-09T07:01:50Z</time>
        <extensions>
          <gpxtpx:TrackPointExtension></gpxtpx:TrackPointExtension>
        </extensions>
      </trkpt>
      <trkpt lat="23.123781" lon="113.31897">
        <ele>11.04</ele>
        <time>2026-05-09T07:01:55Z</time>
        <extensions>
          <gpxtpx:TrackPointExtension></gpxtpx:TrackPointExtension>
        </extensions>
      </trkpt>
      <trkpt lat="23.123877" lon="113.318975">
        <ele>10.94</ele>
        <time>2026-05-09T07:02:00Z</time>
        <extensions>
          <gpxtpx:TrackPointExtension></gpxtpx:TrackPointExtension>
        </extensions>
      </trkpt>
      <trkpt lat="23.124027" lon="113.318948">
        <ele>10.91</ele>
        <time>2026-05-09T07:02:05Z</time>
        <extensions>
          <gpxtpx:TrackPointExtension></gpxtpx:TrackPointExtension>
        </extensions>
      </trkpt>
      <trkpt lat="23.124162" lon="113.31892">
        <ele>10.94</ele>
        <time>2026-05-09T07:02:10Z</time>
        <extensions>
          <gpxtpx:TrackPointExtension></gpxtpx:TrackPointExtension>
        </extensions>
      </trkpt>
      <trkpt lat="23.12428" lon="113.318902">
        <ele>10.96</ele>
        <time>2026-05-09T07:02:15Z</time>
        <extensions>
          <gpxtpx:TrackPointExtension></gpxtpx:TrackPointExtension>
        </extensions>
      </trkpt>
      <trkpt lat="23.124399" lon="113.318892">
        <ele>11.14</ele>
        <time>2026-05-09T07:02:20Z</time>
        <extensions>
          <gpxtpx:TrackPointExtension></gpxtpx:TrackPointExtension>
        </extensions>
      </trkpt>
      <trkpt lat="23.124527" lon="113.318903">
        <ele>11.11</ele>
        <time>2026-05-09T07:02:25Z</time>
        <extensions>
          <gpxtpx:TrackPointExtension></gpxtpx:TrackPointExtension>
        </extensions>
      </trkpt>
      <trkpt lat="23.124647" lon="113.318906">
        <ele>11.02</ele>
        <time>2026-05-09T07:02:30Z</time>
        <extensions>
          <gpxtpx:TrackPointExtension></gpxtpx:TrackPointExtension>
        </extensions>
      </trkpt>
      <trkpt lat="23.124774" lon="113.318884">
        <ele>10.93</ele>
        <time>2026-05-09T07:02:35Z</time>
        <extensions>
          <gpxtpx:TrackPointExtension></gpxtpx:TrackPointExtension>
        </extensions>
      </trkpt>
      <trkpt lat="23.124913" lon="113.318852">
        <ele>10.93</ele>
        <time>2026-05-09T07:02:40Z</time>
        <extensions>
          <gpxtpx:TrackPointExtension></gpxtpx:TrackPointExtension>
        </extensions>
      </trkpt>
      <trkpt lat="23.125024" lon="113.318822">
        <ele>11.15</ele>
        <time>2026-05-09T07:02:45Z</time>
        <extensions>
          <gpxtpx:TrackPointExtension></gpxtpx:TrackPointExtension>
        </extensions>
      </trkpt>
      <trkpt lat="23.125161" lon="113.318807">
        <ele>11.08</ele>
        <time>2026-05-09T07:02:50Z</time>
        <extensions>
          <gpxtpx:TrackPointExtension></gpxtpx:TrackPointExtension>
        </extensions>
      </trkpt>
      <trkpt lat="23.125309" lon="113.318765">
        <ele>11.17</ele>
        <time>2026-05-09T07:02:55Z</time>
        <extensions>
          <gpxtpx:TrackPointExtension></gpxtpx:TrackPointExtension>
        </extensions>
      </trkpt>
      <trkpt lat="23.125438" lon="113.318737">
        <ele>11.27</ele>
        <time>2026-05-09T07:03:00Z</time>
        <extensions>
          <gpxtpx:TrackPointExtension></gpxtpx:TrackPointExtension>
        </extensions>
      </trkpt>
      <trkpt lat="23.125544" lon="113.318759">
        <ele>11.32</ele>
        <time>2026-05-09T07:03:05Z</time>
        <extensions>
          <gpxtpx:TrackPointExtension></gpxtpx:TrackPointExtension>
        </extensions>
      </trkpt>
      <trkpt lat="23.125695" lon="113.318711">
        <ele>11.21</ele>
        <time>2026-05-09T07:03:10Z</time>
        <extensions>
          <gpxtpx:TrackPointExtension></gpxtpx:TrackPointExtension>
        </extensions>
      </trkpt>
      <trkpt lat="23.125843" lon="113.318685">
        <ele>11.2</ele>
        <time>2026-05-09T07:03:15Z</time>
        <extensions>
          <gpxtpx:TrackPointExtension></gpxtpx:TrackPointExtension>
        </extensions>
      </trkpt>
      <trkpt lat="23.125975" lon="113.318673">
        <ele>11.15</ele>
        <time>2026-05-09T07:03:20Z</time>
        <extensions>
          <gpxtpx:TrackPointExtension></gpxtpx:TrackPointExtension>
        </extensions>
      </trkpt>
      <trkpt lat="23.126108" lon="113.31867">
        <ele>11.14</ele>
        <time>2026-05-09T07:03:25Z</time>
        <extensions>
          <gpxtpx:TrackPointExtension></gpxtpx:TrackPointExtension>
        </extensions>
      </trkpt>
      <trkpt lat="23.12624" lon="113.318638">
        <ele>11.19</ele>
        <time>2026-05-09T07:03:30Z</time>
        <extensions>
          <gpxtpx:TrackPointExtension></gpxtpx:TrackPointExtension>
        </extensions>
      </trkpt>
      <trkpt lat="23.126369" lon="113.318684">
        <ele>11.17</ele>
        <time>2026-05-09T07:03:35Z</time>
        <extensions>
          <gpxtpx:TrackPointExtension></gpxtpx:TrackPointExtension>
        </extensions>
      </trkpt>
      <trkpt lat="23.126481" lon="113.318709">
        <ele>11.1</ele>
        <time>2026-05-09T07:03:40Z</time>
        <extensions>
          <gpxtpx:TrackPointExtension></gpxtpx:TrackPointExtension>
        </extensions>
      </trkpt>
      <trkpt lat="23.126598" lon="113.318742">
        <ele>11.1</ele>
        <time>2026-05-09T07:03:45Z</time>
        <extensions>
          <gpxtpx:TrackPointExtension></gpxtpx:TrackPointExtension>
        </extensions>
      </trkpt>
      <trkpt lat="23.126737" lon="113.318721">
        <ele>11.2</ele>
        <time>2026-05-09T07:03:50Z</time>
        <extensions>
          <gpxtpx:TrackPointExtension></gpxtpx:TrackPointExtension>
        </extensions>
      </trkpt>
      <trkpt lat="23.126872" lon="113.318736">
        <ele>11.22</ele>
        <time>2026-05-09T07:03:55Z</time>
        <extensions>
          <gpxtpx:TrackPointExtension></gpxtpx:TrackPointExtension>
        </extensions>
      </trkpt>
      <trkpt lat="23.127042" lon="113.318808">
        <ele>11.27</ele>
        <time>2026-05-09T07:04:00Z</time>
        <extensions>
          <gpxtpx:TrackPointExtension></gpxtpx:TrackPointExtension>
        </extensions>
      </trkpt>
      <trkpt lat="23.127158" lon="113.318873">
        <ele>11.21</ele>
        <time>2026-05-09T07:04:05Z</time>
        <extensions>
          <gpxtpx:TrackPointExtension></gpxtpx:TrackPointExtension>
        </extensions>
      </trkpt>
      <trkpt lat="23.127286" lon="113.318906">
        <ele>11.06</ele>
        <time>2026-05-09T07:04:10Z</time>
        <extensions>
          <gpxtpx:TrackPointExtension></gpxtpx:TrackPointExtension>
        </extensions>
      </trkpt>
      <trkpt lat="23.127418" lon="113.318952">
        <ele>11.15</ele>
        <time>2026-05-09T07:04:15Z</time>
        <extensions>
          <gpxtpx:TrackPointExtension></gpxtpx:TrackPointExtension>
        </extensions>
      </trkpt>
      <trkpt lat="23.127551" lon="113.318961">
        <ele>11.11</ele>
        <time>2026-05-09T07:04:20Z</time>
        <extensions>
          <gpxtpx:TrackPointExtension></gpxtpx:TrackPointExtension>
        </extensions>
      </trkpt>
      <trkpt lat="23.12769" lon="113.318997">
        <ele>11.1</ele>
        <time>2026-05-09T07:04:25Z</time>
        <extensions>
          <gpxtpx:TrackPointExtension></gpxtpx:TrackPointExtension>
        </extensions>
      </trkpt>
      <trkpt lat="23.127812" lon="113.319038">
        <ele>11.26</ele>
        <time>2026-05-09T07:04:30Z</time>
        <extensions>
          <gpxtpx:TrackPointExtension></gpxtpx:TrackPointExtension>
        </extensions>
      </trkpt>
      <trkpt lat="23.127953" lon="113.31907">
        <ele>11.31</ele>
        <time>2026-05-09T07:04:35Z</time>
        <extensions>
          <gpxtpx:TrackPointExtension></gpxtpx:TrackPointExtension>
        </extensions>
      </trkpt>
      <trkpt lat="23.128075" lon="113.319091">
        <ele>11.37</ele>
        <time>2026-05-09T07:04:40Z</time>
        <extensions>
          <gpxtpx:TrackPointExtension></gpxtpx:TrackPointExtension>
        </extensions>
      </trkpt>
      <trkpt lat="23.128208" lon="113.319102">
        <ele>11.45</ele>
        <time>2026-05-09T07:04:45Z</time>
        <extensions>
          <gpxtpx:TrackPointExtension></gpxtpx:TrackPointExtension>
        </extensions>
      </trkpt>
      <trkpt lat="23.128348" lon="113.319131">
        <ele>11.24</ele>
        <time>2026-05-09T07:04:50Z</time>
        <extensions>
          <gpxtpx:TrackPointExtension></gpxtpx:TrackPointExtension>
        </extensions>
      </trkpt>
      <trkpt lat="23.128489" lon="113.319128">
        <ele>11.08</ele>
        <time>2026-05-09T07:04:55Z</time>
        <extensions>
          <gpxtpx:TrackPointExtension></gpxtpx:TrackPointExtension>
        </extensions>
      </trkpt>
      <trkpt lat="23.12863" lon="113.319149">
        <ele>11.33</ele>
        <time>2026-05-09T07:05:00Z</time>
        <extensions>
          <gpxtpx:TrackPointExtension></gpxtpx:TrackPointExtension>
        </extensions>
      </trkpt>
      <trkpt lat="23.12878" lon="113.319116">
        <ele>11.18</ele>
        <time>2026-05-09T07:05:05Z</time>
        <extensions>
          <gpxtpx:TrackPointExtension></gpxtpx:TrackPointExtension>
        </extensions>
      </trkpt>
      <trkpt lat="23.128926" lon="113.319073">
        <ele>11.36</ele>
        <time>2026-05-09T07:05:10Z</time>
        <extensions>
          <gpxtpx:TrackPointExtension></gpxtpx:TrackPointExtension>
        </extensions>
      </trkpt>
      <trkpt lat="23.129038" lon="113.31905">
        <ele>11.41</ele>
        <time>2026-05-09T07:05:15Z</time>
        <extensions>
          <gpxtpx:TrackPointExtension></gpxtpx:TrackPointExtension>
        </extensions>
      </trkpt>
      <trkpt lat="23.129208" lon="113.319041">
        <ele>11.37</ele>
        <time>2026-05-09T07:05:20Z</time>
        <extensions>
          <gpxtpx:TrackPointExtension></gpxtpx:TrackPointExtension>
        </extensions>
      </trkpt>
      <trkpt lat="23.12932" lon="113.31909">
        <ele>11.23</ele>
        <time>2026-05-09T07:05:25Z</time>
        <extensions>
          <gpxtpx:TrackPointExtension></gpxtpx:TrackPointExtension>
        </extensions>
      </trkpt>
      <trkpt lat="23.129486" lon="113.319072">
        <ele>11.19</ele>
        <time>2026-05-09T07:05:30Z</time>
        <extensions>
          <gpxtpx:TrackPointExtension></gpxtpx:TrackPointExtension>
        </extensions>
      </trkpt>
      <trkpt lat="23.129592" lon="113.319126">
        <ele>10.92</ele>
        <time>2026-05-09T07:05:35Z</time>
        <extensions>
          <gpxtpx:TrackPointExtension></gpxtpx:TrackPointExtension>
        </extensions>
      </trkpt>
      <trkpt lat="23.129522" lon="113.319271">
        <ele>10.77</ele>
        <time>2026-05-09T07:05:40Z</time>
        <extensions>
          <gpxtpx:TrackPointExtension></gpxtpx:TrackPointExtension>
        </extensions>
      </trkpt>
      <trkpt lat="23.129487" lon="113.319396">
        <ele>10.86</ele>
        <time>2026-05-09T07:05:45Z</time>
        <extensions>
          <gpxtpx:TrackPointExtension></gpxtpx:TrackPointExtension>
        </extensions>
      </trkpt>
      <trkpt lat="23.129365" lon="113.319443">
        <ele>10.88</ele>
        <time>2026-05-09T07:05:50Z</time>
        <extensions>
          <gpxtpx:TrackPointExtension></gpxtpx:TrackPointExtension>
        </extensions>
      </trkpt>
      <trkpt lat="23.129235" lon="113.319451">
        <ele>10.78</ele>
        <time>2026-05-09T07:05:55Z</time>
        <extensions>
          <gpxtpx:TrackPointExtension></gpxtpx:TrackPointExtension>
        </extensions>
      </trkpt>
      <trkpt lat="23.129104" lon="113.319448">
        <ele>10.76</ele>
        <time>2026-05-09T07:06:00Z</time>
        <extensions>
          <gpxtpx:TrackPointExtension></gpxtpx:TrackPointExtension>
        </extensions>
      </trkpt>
      <trkpt lat="23.128961" lon="113.319453">
        <ele>10.8</ele>
        <time>2026-05-09T07:06:05Z</time>
        <extensions>
          <gpxtpx:TrackPointExtension></gpxtpx:TrackPointExtension>
        </extensions>
      </trkpt>
      <trkpt lat="23.128823" lon="113.319438">
        <ele>10.88</ele>
        <time>2026-05-09T07:06:10Z</time>
        <extensions>
          <gpxtpx:TrackPointExtension></gpxtpx:TrackPointExtension>
        </extensions>
      </trkpt>
      <trkpt lat="23.128686" lon="113.319411">
        <ele>11.09</ele>
        <time>2026-05-09T07:06:15Z</time>
        <extensions>
          <gpxtpx:TrackPointExtension></gpxtpx:TrackPointExtension>
        </extensions>
      </trkpt>
      <trkpt lat="23.128545" lon="113.319396">
        <ele>11.18</ele>
        <time>2026-05-09T07:06:20Z</time>
        <extensions>
          <gpxtpx:TrackPointExtension></gpxtpx:TrackPointExtension>
        </extensions>
      </trkpt>
      <trkpt lat="23.128405" lon="113.319393">
        <ele>10.93</ele>
        <time>2026-05-09T07:06:25Z</time>
        <extensions>
          <gpxtpx:TrackPointExtension></gpxtpx:TrackPointExtension>
        </extensions>
      </trkpt>
      <trkpt lat="23.128271" lon="113.319387">
        <ele>10.88</ele>
        <time>2026-05-09T07:06:30Z</time>
        <extensions>
          <gpxtpx:TrackPointExtension></gpxtpx:TrackPointExtension>
        </extensions>
      </trkpt>
      <trkpt lat="23.128145" lon="113.319399">
        <ele>10.93</ele>
        <time>2026-05-09T07:06:35Z</time>
        <extensions>
          <gpxtpx:TrackPointExtension></gpxtpx:TrackPointExtension>
        </extensions>
      </trkpt>
      <trkpt lat="23.128047" lon="113.319481">
        <ele>10.86</ele>
        <time>2026-05-09T07:06:40Z</time>
        <extensions>
          <gpxtpx:TrackPointExtension></gpxtpx:TrackPointExtension>
        </extensions>
      </trkpt>
      <trkpt lat="23.12793" lon="113.319457">
        <ele>10.78</ele>
        <time>2026-05-09T07:06:45Z</time>
        <extensions>
          <gpxtpx:TrackPointExtension></gpxtpx:TrackPointExtension>
        </extensions>
      </trkpt>
      <trkpt lat="23.127836" lon="113.319501">
        <ele>10.93</ele>
        <time>2026-05-09T07:06:50Z</time>
        <extensions>
          <gpxtpx:TrackPointExtension></gpxtpx:TrackPointExtension>
        </extensions>
      </trkpt>
      <trkpt lat="23.127713" lon="113.319483">
        <ele>10.9</ele>
        <time>2026-05-09T07:06:55Z</time>
        <extensions>
          <gpxtpx:TrackPointExtension></gpxtpx:TrackPointExtension>
        </extensions>
      </trkpt>
      <trkpt lat="23.1276" lon="113.319479">
        <ele>10.99</ele>
        <time>2026-05-09T07:07:00Z</time>
        <extensions>
          <gpxtpx:TrackPointExtension></gpxtpx:TrackPointExtension>
        </extensions>
      </trkpt>
      <trkpt lat="23.127479" lon="113.319511">
        <ele>11.13</ele>
        <time>2026-05-09T07:07:05Z</time>
        <extensions>
          <gpxtpx:TrackPointExtension></gpxtpx:TrackPointExtension>
        </extensions>
      </trkpt>
      <trkpt lat="23.127342" lon="113.319573">
        <ele>11.1</ele>
        <time>2026-05-09T07:07:10Z</time>
        <extensions>
          <gpxtpx:TrackPointExtension></gpxtpx:TrackPointExtension>
        </extensions>
      </trkpt>
      <trkpt lat="23.127206" lon="113.319597">
        <ele>11.14</ele>
        <time>2026-05-09T07:07:15Z</time>
        <extensions>
          <gpxtpx:TrackPointExtension></gpxtpx:TrackPointExtension>
        </extensions>
      </trkpt>
      <trkpt lat="23.127044" lon="113.319635">
        <ele>11.21</ele>
        <time>2026-05-09T07:07:20Z</time>
        <extensions>
          <gpxtpx:TrackPointExtension></gpxtpx:TrackPointExtension>
        </extensions>
      </trkpt>
      <trkpt lat="23.1269" lon="113.319668">
        <ele>11.26</ele>
        <time>2026-05-09T07:07:25Z</time>
        <extensions>
          <gpxtpx:TrackPointExtension></gpxtpx:TrackPointExtension>
        </extensions>
      </trkpt>
      <trkpt lat="23.126765" lon="113.319694">
        <ele>11.17</ele>
        <time>2026-05-09T07:07:30Z</time>
        <extensions>
          <gpxtpx:TrackPointExtension></gpxtpx:TrackPointExtension>
        </extensions>
      </trkpt>
      <trkpt lat="23.126642" lon="113.319767">
        <ele>11.23</ele>
        <time>2026-05-09T07:07:35Z</time>
        <extensions>
          <gpxtpx:TrackPointExtension></gpxtpx:TrackPointExtension>
        </extensions>
      </trkpt>
      <trkpt lat="23.126511" lon="113.319803">
        <ele>11.4</ele>
        <time>2026-05-09T07:07:40Z</time>
        <extensions>
          <gpxtpx:TrackPointExtension></gpxtpx:TrackPointExtension>
        </extensions>
      </trkpt>
      <trkpt lat="23.126348" lon="113.319837">
        <ele>11.5</ele>
        <time>2026-05-09T07:07:45Z</time>
        <extensions>
          <gpxtpx:TrackPointExtension></gpxtpx:TrackPointExtension>
        </extensions>
      </trkpt>
      <trkpt lat="23.126169" lon="113.319824">
        <ele>11.63</ele>
        <time>2026-05-09T07:07:50Z</time>
        <extensions>
          <gpxtpx:TrackPointExtension></gpxtpx:TrackPointExtension>
        </extensions>
      </trkpt>
      <trkpt lat="23.126051" lon="113.319822">
        <ele>11.68</ele>
        <time>2026-05-09T07:07:55Z</time>
        <extensions>
          <gpxtpx:TrackPointExtension></gpxtpx:TrackPointExtension>
        </extensions>
      </trkpt>
      <trkpt lat="23.125914" lon="113.319811">
        <ele>11.57</ele>
        <time>2026-05-09T07:08:00Z</time>
        <extensions>
          <gpxtpx:TrackPointExtension></gpxtpx:TrackPointExtension>
        </extensions>
      </trkpt>
      <trkpt lat="23.125796" lon="113.319791">
        <ele>11.38</ele>
        <time>2026-05-09T07:08:05Z</time>
        <extensions>
          <gpxtpx:TrackPointExtension></gpxtpx:TrackPointExtension>
        </extensions>
      </trkpt>
      <trkpt lat="23.125668" lon="113.319801">
        <ele>11.31</ele>
        <time>2026-05-09T07:08:10Z</time>
        <extensions>
          <gpxtpx:TrackPointExtension></gpxtpx:TrackPointExtension>
        </extensions>
      </trkpt>
      <trkpt lat="23.125512" lon="113.319764">
        <ele>11.1</ele>
        <time>2026-05-09T07:08:15Z</time>
        <extensions>
          <gpxtpx:TrackPointExtension></gpxtpx:TrackPointExtension>
        </extensions>
      </trkpt>
      <trkpt lat="23.125382" lon="113.319744">
        <ele>11.22</ele>
        <time>2026-05-09T07:08:20Z</time>
        <extensions>
          <gpxtpx:TrackPointExtension></gpxtpx:TrackPointExtension>
        </extensions>
      </trkpt>
      <trkpt lat="23.125243" lon="113.319695">
        <ele>10.96</ele>
        <time>2026-05-09T07:08:25Z</time>
        <extensions>
          <gpxtpx:TrackPointExtension></gpxtpx:TrackPointExtension>
        </extensions>
      </trkpt>
      <trkpt lat="23.125104" lon="113.319713">
        <ele>10.98</ele>
        <time>2026-05-09T07:08:30Z</time>
        <extensions>
          <gpxtpx:TrackPointExtension></gpxtpx:TrackPointExtension>
        </extensions>
      </trkpt>
      <trkpt lat="23.124985" lon="113.319687">
        <ele>11.0</ele>
        <time>2026-05-09T07:08:35Z</time>
        <extensions>
          <gpxtpx:TrackPointExtension></gpxtpx:TrackPointExtension>
        </extensions>
      </trkpt>
      <trkpt lat="23.124867" lon="113.31964">
        <ele>11.14</ele>
        <time>2026-05-09T07:08:40Z</time>
        <extensions>
          <gpxtpx:TrackPointExtension></gpxtpx:TrackPointExtension>
        </extensions>
      </trkpt>
      <trkpt lat="23.124741" lon="113.319594">
        <ele>11.27</ele>
        <time>2026-05-09T07:08:45Z</time>
        <extensions>
          <gpxtpx:TrackPointExtension></gpxtpx:TrackPointExtension>
        </extensions>
      </trkpt>
      <trkpt lat="23.12458" lon="113.319564">
        <ele>11.19</ele>
        <time>2026-05-09T07:08:50Z</time>
        <extensions>
          <gpxtpx:TrackPointExtension></gpxtpx:TrackPointExtension>
        </extensions>
      </trkpt>
      <trkpt lat="23.124445" lon="113.319536">
        <ele>11.39</ele>
        <time>2026-05-09T07:08:55Z</time>
        <extensions>
          <gpxtpx:TrackPointExtension></gpxtpx:TrackPointExtension>
        </extensions>
      </trkpt>
      <trkpt lat="23.124325" lon="113.319523">
        <ele>11.36</ele>
        <time>2026-05-09T07:09:00Z</time>
        <extensions>
          <gpxtpx:TrackPointExtension></gpxtpx:TrackPointExtension>
        </extensions>
      </trkpt>
      <trkpt lat="23.124164" lon="113.319505">
        <ele>11.26</ele>
        <time>2026-05-09T07:09:05Z</time>
        <extensions>
          <gpxtpx:TrackPointExtension></gpxtpx:TrackPointExtension>
        </extensions>
      </trkpt>
      <trkpt lat="23.123993" lon="113.319492">
        <ele>11.01</ele>
        <time>2026-05-09T07:09:10Z</time>
        <extensions>
          <gpxtpx:TrackPointExtension></gpxtpx:TrackPointExtension>
        </extensions>
      </trkpt>
      <trkpt lat="23.123885" lon="113.319445">
        <ele>11.2</ele>
        <time>2026-05-09T07:09:15Z</time>
        <extensions>
          <gpxtpx:TrackPointExtension></gpxtpx:TrackPointExtension>
        </extensions>
      </trkpt>
      <trkpt lat="23.123754" lon="113.319405">
        <ele>11.2</ele>
        <time>2026-05-09T07:09:20Z</time>
        <extensions>
          <gpxtpx:TrackPointExtension></gpxtpx:TrackPointExtension>
        </extensions>
      </trkpt>
      <trkpt lat="23.123644" lon="113.319394">
        <ele>11.18</ele>
        <time>2026-05-09T07:09:25Z</time>
        <extensions>
          <gpxtpx:TrackPointExtension></gpxtpx:TrackPointExtension>
        </extensions>
      </trkpt>
      <trkpt lat="23.123491" lon="113.31937">
        <ele>11.31</ele>
        <time>2026-05-09T07:09:30Z</time>
        <extensions>
          <gpxtpx:TrackPointExtension></gpxtpx:TrackPointExtension>
        </extensions>
      </trkpt>
      <trkpt lat="23.123362" lon="113.319351">
        <ele>11.19</ele>
        <time>2026-05-09T07:09:35Z</time>
        <extensions>
          <gpxtpx:TrackPointExtension></gpxtpx:TrackPointExtension>
        </extensions>
      </trkpt>
      <trkpt lat="23.123236" lon="113.319361">
        <ele>11.26</ele>
        <time>2026-05-09T07:09:40Z</time>
        <extensions>
          <gpxtpx:TrackPointExtension></gpxtpx:TrackPointExtension>
        </extensions>
      </trkpt>
      <trkpt lat="23.123086" lon="113.319341">
        <ele>11.27</ele>
        <time>2026-05-09T07:09:45Z</time>
        <extensions>
          <gpxtpx:TrackPointExtension></gpxtpx:TrackPointExtension>
        </extensions>
      </trkpt>
      <trkpt lat="23.122913" lon="113.319334">
        <ele>11.19</ele>
        <time>2026-05-09T07:09:50Z</time>
        <extensions>
          <gpxtpx:TrackPointExtension></gpxtpx:TrackPointExtension>
        </extensions>
      </trkpt>
      <trkpt lat="23.12278" lon="113.319336">
        <ele>11.28</ele>
        <time>2026-05-09T07:09:55Z</time>
        <extensions>
          <gpxtpx:TrackPointExtension></gpxtpx:TrackPointExtension>
        </extensions>
      </trkpt>
      <trkpt lat="23.12261" lon="113.319328">
        <ele>11.22</ele>
        <time>2026-05-09T07:10:00Z</time>
        <extensions>
          <gpxtpx:TrackPointExtension></gpxtpx:TrackPointExtension>
        </extensions>
      </trkpt>
      <trkpt lat="23.122485" lon="113.319328">
        <ele>10.99</ele>
        <time>2026-05-09T07:10:05Z</time>
        <extensions>
          <gpxtpx:TrackPointExtension></gpxtpx:TrackPointExtension>
        </extensions>
      </trkpt>
      <trkpt lat="23.122358" lon="113.319343">
        <ele>10.84</ele>
        <time>2026-05-09T07:10:10Z</time>
        <extensions>
          <gpxtpx:TrackPointExtension></gpxtpx:TrackPointExtension>
        </extensions>
      </trkpt>
      <trkpt lat="23.12223" lon="113.319366">
        <ele>10.75</ele>
        <time>2026-05-09T07:10:15Z</time>
        <extensions>
          <gpxtpx:TrackPointExtension></gpxtpx:TrackPointExtension>
        </extensions>
      </trkpt>
      <trkpt lat="23.122088" lon="113.319388">
        <ele>10.68</ele>
        <time>2026-05-09T07:10:20Z</time>
        <extensions>
          <gpxtpx:TrackPointExtension></gpxtpx:TrackPointExtension>
        </extensions>
      </trkpt>
      <trkpt lat="23.121942" lon="113.319392">
        <ele>10.81</ele>
        <time>2026-05-09T07:10:25Z</time>
        <extensions>
          <gpxtpx:TrackPointExtension></gpxtpx:TrackPointExtension>
        </extensions>
      </trkpt>
      <trkpt lat="23.121784" lon="113.319382">
        <ele>10.8</ele>
        <time>2026-05-09T07:10:30Z</time>
        <extensions>
          <gpxtpx:TrackPointExtension></gpxtpx:TrackPointExtension>
        </extensions>
      </trkpt>
      <trkpt lat="23.121654" lon="113.319382">
        <ele>10.7</ele>
        <time>2026-05-09T07:10:35Z</time>
        <extensions>
          <gpxtpx:TrackPointExtension></gpxtpx:TrackPointExtension>
        </extensions>
      </trkpt>
      <trkpt lat="23.121508" lon="113.319384">
        <ele>10.65</ele>
        <time>2026-05-09T07:10:40Z</time>
        <extensions>
          <gpxtpx:TrackPointExtension></gpxtpx:TrackPointExtension>
        </extensions>
      </trkpt>
      <trkpt lat="23.121372" lon="113.319373">
        <ele>10.68</ele>
        <time>2026-05-09T07:10:45Z</time>
        <extensions>
          <gpxtpx:TrackPointExtension></gpxtpx:TrackPointExtension>
        </extensions>
      </trkpt>
      <trkpt lat="23.121247" lon="113.319367">
        <ele>10.65</ele>
        <time>2026-05-09T07:10:50Z</time>
        <extensions>
          <gpxtpx:TrackPointExtension></gpxtpx:TrackPointExtension>
        </extensions>
      </trkpt>
      <trkpt lat="23.121111" lon="113.319365">
        <ele>10.6</ele>
        <time>2026-05-09T07:10:55Z</time>
        <extensions>
          <gpxtpx:TrackPointExtension></gpxtpx:TrackPointExtension>
        </extensions>
      </trkpt>
      <trkpt lat="23.120979" lon="113.319363">
        <ele>10.56</ele>
        <time>2026-05-09T07:11:00Z</time>
        <extensions>
          <gpxtpx:TrackPointExtension></gpxtpx:TrackPointExtension>
        </extensions>
      </trkpt>
      <trkpt lat="23.120849" lon="113.319363">
        <ele>10.45</ele>
        <time>2026-05-09T07:11:05Z</time>
        <extensions>
          <gpxtpx:TrackPointExtension></gpxtpx:TrackPointExtension>
        </extensions>
      </trkpt>
      <trkpt lat="23.120714" lon="113.319351">
        <ele>10.51</ele>
        <time>2026-05-09T07:11:10Z</time>
        <extensions>
          <gpxtpx:TrackPointExtension></gpxtpx:TrackPointExtension>
        </extensions>
      </trkpt>
      <trkpt lat="23.120572" lon="113.319339">
        <ele>10.81</ele>
        <time>2026-05-09T07:11:15Z</time>
        <extensions>
          <gpxtpx:TrackPointExtension></gpxtpx:TrackPointExtension>
        </extensions>
      </trkpt>
      <trkpt lat="23.120386" lon="113.319364">
        <ele>10.92</ele>
        <time>2026-05-09T07:11:20Z</time>
        <extensions>
          <gpxtpx:TrackPointExtension></gpxtpx:TrackPointExtension>
        </extensions>
      </trkpt>
      <trkpt lat="23.120243" lon="113.319356">
        <ele>10.85</ele>
        <time>2026-05-09T07:11:25Z</time>
        <extensions>
          <gpxtpx:TrackPointExtension></gpxtpx:TrackPointExtension>
        </extensions>
      </trkpt>
      <trkpt lat="23.120086" lon="113.319352">
        <ele>10.62</ele>
        <time>2026-05-09T07:11:30Z</time>
        <extensions>
          <gpxtpx:TrackPointExtension></gpxtpx:TrackPointExtension>
        </extensions>
      </trkpt>
      <trkpt lat="23.119955" lon="113.31936">
        <ele>10.62</ele>
        <time>2026-05-09T07:11:35Z</time>
        <extensions>
          <gpxtpx:TrackPointExtension></gpxtpx:TrackPointExtension>
        </extensions>
      </trkpt>
      <trkpt lat="23.119864" lon="113.319387">
        <ele>10.72</ele>
        <time>2026-05-09T07:11:40Z</time>
        <extensions>
          <gpxtpx:TrackPointExtension></gpxtpx:TrackPointExtension>
        </extensions>
      </trkpt>
      <trkpt lat="23.11974" lon="113.319362">
        <ele>10.8</ele>
        <time>2026-05-09T07:11:45Z</time>
        <extensions>
          <gpxtpx:TrackPointExtension></gpxtpx:TrackPointExtension>
        </extensions>
      </trkpt>
      <trkpt lat="23.119593" lon="113.319369">
        <ele>10.84</ele>
        <time>2026-05-09T07:11:50Z</time>
        <extensions>
          <gpxtpx:TrackPointExtension></gpxtpx:TrackPointExtension>
        </extensions>
      </trkpt>
      <trkpt lat="23.119458" lon="113.319355">
        <ele>10.91</ele>
        <time>2026-05-09T07:11:55Z</time>
        <extensions>
          <gpxtpx:TrackPointExtension></gpxtpx:TrackPointExtension>
        </extensions>
      </trkpt>
      <trkpt lat="23.119317" lon="113.319357">
        <ele>10.96</ele>
        <time>2026-05-09T07:12:00Z</time>
        <extensions>
          <gpxtpx:TrackPointExtension></gpxtpx:TrackPointExtension>
        </extensions>
      </trkpt>
      <trkpt lat="23.119176" lon="113.319358">
        <ele>11.14</ele>
        <time>2026-05-09T07:12:05Z</time>
        <extensions>
          <gpxtpx:TrackPointExtension></gpxtpx:TrackPointExtension>
        </extensions>
      </trkpt>
      <trkpt lat="23.119042" lon="113.319354">
        <ele>10.9</ele>
        <time>2026-05-09T07:12:10Z</time>
        <extensions>
          <gpxtpx:TrackPointExtension></gpxtpx:TrackPointExtension>
        </extensions>
      </trkpt>
      <trkpt lat="23.11892" lon="113.319322">
        <ele>11.02</ele>
        <time>2026-05-09T07:12:15Z</time>
        <extensions>
          <gpxtpx:TrackPointExtension></gpxtpx:TrackPointExtension>
        </extensions>
      </trkpt>
      <trkpt lat="23.118766" lon="113.319298">
        <ele>11.13</ele>
        <time>2026-05-09T07:12:20Z</time>
        <extensions>
          <gpxtpx:TrackPointExtension></gpxtpx:TrackPointExtension>
        </extensions>
      </trkpt>
      <trkpt lat="23.118594" lon="113.319306">
        <ele>11.06</ele>
        <time>2026-05-09T07:12:25Z</time>
        <extensions>
          <gpxtpx:TrackPointExtension></gpxtpx:TrackPointExtension>
        </extensions>
      </trkpt>
      <trkpt lat="23.118444" lon="113.319293">
        <ele>11.08</ele>
        <time>2026-05-09T07:12:30Z</time>
        <extensions>
          <gpxtpx:TrackPointExtension></gpxtpx:TrackPointExtension>
        </extensions>
      </trkpt>
      <trkpt lat="23.118315" lon="113.319297">
        <ele>11.14</ele>
        <time>2026-05-09T07:12:35Z</time>
        <extensions>
          <gpxtpx:TrackPointExtension></gpxtpx:TrackPointExtension>
        </extensions>
      </trkpt>
      <trkpt lat="23.118177" lon="113.319294">
        <ele>11.05</ele>
        <time>2026-05-09T07:12:40Z</time>
        <extensions>
          <gpxtpx:TrackPointExtension></gpxtpx:TrackPointExtension>
        </extensions>
      </trkpt>
      <trkpt lat="23.118043" lon="113.319293">
        <ele>11.03</ele>
        <time>2026-05-09T07:12:45Z</time>
        <extensions>
          <gpxtpx:TrackPointExtension></gpxtpx:TrackPointExtension>
        </extensions>
      </trkpt>
      <trkpt lat="23.117924" lon="113.319278">
        <ele>11.08</ele>
        <time>2026-05-09T07:12:50Z</time>
        <extensions>
          <gpxtpx:TrackPointExtension></gpxtpx:TrackPointExtension>
        </extensions>
      </trkpt>
      <trkpt lat="23.117781" lon="113.31928">
        <ele>11.19</ele>
        <time>2026-05-09T07:12:55Z</time>
        <extensions>
          <gpxtpx:TrackPointExtension></gpxtpx:TrackPointExtension>
        </extensions>
      </trkpt>
      <trkpt lat="23.117642" lon="113.31929">
        <ele>11.08</ele>
        <time>2026-05-09T07:13:00Z</time>
        <extensions>
          <gpxtpx:TrackPointExtension></gpxtpx:TrackPointExtension>
        </extensions>
      </trkpt>
      <trkpt lat="23.117503" lon="113.319312">
        <ele>11.17</ele>
        <time>2026-05-09T07:13:05Z</time>
        <extensions>
          <gpxtpx:TrackPointExtension></gpxtpx:TrackPointExtension>
        </extensions>
      </trkpt>
      <trkpt lat="23.117372" lon="113.319312">
        <ele>11.13</ele>
        <time>2026-05-09T07:13:10Z</time>
        <extensions>
          <gpxtpx:TrackPointExtension></gpxtpx:TrackPointExtension>
        </extensions>
      </trkpt>
      <trkpt lat="23.117237" lon="113.319323">
        <ele>11.23</ele>
        <time>2026-05-09T07:13:15Z</time>
        <extensions>
          <gpxtpx:TrackPointExtension></gpxtpx:TrackPointExtension>
        </extensions>
      </trkpt>
      <trkpt lat="23.117109" lon="113.319325">
        <ele>11.28</ele>
        <time>2026-05-09T07:13:20Z</time>
        <extensions>
          <gpxtpx:TrackPointExtension></gpxtpx:TrackPointExtension>
        </extensions>
      </trkpt>
      <trkpt lat="23.116965" lon="113.319314">
        <ele>11.43</ele>
        <time>2026-05-09T07:13:25Z</time>
        <extensions>
          <gpxtpx:TrackPointExtension></gpxtpx:TrackPointExtension>
        </extensions>
      </trkpt>
      <trkpt lat="23.116825" lon="113.319322">
        <ele>11.47</ele>
        <time>2026-05-09T07:13:30Z</time>
        <extensions>
          <gpxtpx:TrackPointExtension></gpxtpx:TrackPointExtension>
        </extensions>
      </trkpt>
      <trkpt lat="23.116708" lon="113.319297">
        <ele>11.54</ele>
        <time>2026-05-09T07:13:35Z</time>
        <extensions>
          <gpxtpx:TrackPointExtension></gpxtpx:TrackPointExtension>
        </extensions>
      </trkpt>
      <trkpt lat="23.116554" lon="113.319327">
        <ele>11.79</ele>
        <time>2026-05-09T07:13:40Z</time>
        <extensions>
          <gpxtpx:TrackPointExtension></gpxtpx:TrackPointExtension>
        </extensions>
      </trkpt>
      <trkpt lat="23.116416" lon="113.319342">
        <ele>11.87</ele>
        <time>2026-05-09T07:13:45Z</time>
        <extensions>
          <gpxtpx:TrackPointExtension></gpxtpx:TrackPointExtension>
        </extensions>
      </trkpt>
      <trkpt lat="23.116266" lon="113.319348">
        <ele>11.68</ele>
        <time>2026-05-09T07:13:50Z</time>
        <extensions>
          <gpxtpx:TrackPointExtension></gpxtpx:TrackPointExtension>
        </extensions>
      </trkpt>
      <trkpt lat="23.116137" lon="113.319431">
        <ele>11.63</ele>
        <time>2026-05-09T07:13:55Z</time>
        <extensions>
          <gpxtpx:TrackPointExtension></gpxtpx:TrackPointExtension>
        </extensions>
      </trkpt>
      <trkpt lat="23.116105" lon="113.31958">
        <ele>11.67</ele>
        <time>2026-05-09T07:14:00Z</time>
        <extensions>
          <gpxtpx:TrackPointExtension></gpxtpx:TrackPointExtension>
        </extensions>
      </trkpt>
      <trkpt lat="23.116091" lon="113.319732">
        <ele>11.45</ele>
        <time>2026-05-09T07:14:05Z</time>
        <extensions>
          <gpxtpx:TrackPointExtension></gpxtpx:TrackPointExtension>
        </extensions>
      </trkpt>
      <trkpt lat="23.116071" lon="113.319869">
        <ele>11.48</ele>
        <time>2026-05-09T07:14:10Z</time>
        <extensions>
          <gpxtpx:TrackPointExtension></gpxtpx:TrackPointExtension>
        </extensions>
      </trkpt>
      <trkpt lat="23.116087" lon="113.320021">
        <ele>11.28</ele>
        <time>2026-05-09T07:14:15Z</time>
        <extensions>
          <gpxtpx:TrackPointExtension></gpxtpx:TrackPointExtension>
        </extensions>
      </trkpt>
      <trkpt lat="23.116061" lon="113.320182">
        <ele>11.02</ele>
        <time>2026-05-09T07:14:20Z</time>
        <extensions>
          <gpxtpx:TrackPointExtension></gpxtpx:TrackPointExtension>
        </extensions>
      </trkpt>
      <trkpt lat="23.116045" lon="113.320343">
        <ele>11.07</ele>
        <time>2026-05-09T07:14:25Z</time>
        <extensions>
          <gpxtpx:TrackPointExtension></gpxtpx:TrackPointExtension>
        </extensions>
      </trkpt>
      <trkpt lat="23.116028" lon="113.320492">
        <ele>11.04</ele>
        <time>2026-05-09T07:14:30Z</time>
        <extensions>
          <gpxtpx:TrackPointExtension></gpxtpx:TrackPointExtension>
        </extensions>
      </trkpt>
      <trkpt lat="23.116009" lon="113.320611">
        <ele>11.23</ele>
        <time>2026-05-09T07:14:35Z</time>
        <extensions>
          <gpxtpx:TrackPointExtension></gpxtpx:TrackPointExtension>
        </extensions>
      </trkpt>
      <trkpt lat="23.115995" lon="113.320779">
        <ele>11.01</ele>
        <time>2026-05-09T07:14:40Z</time>
        <extensions>
          <gpxtpx:TrackPointExtension></gpxtpx:TrackPointExtension>
        </extensions>
      </trkpt>
      <trkpt lat="23.115981" lon="113.320927">
        <ele>11.05</ele>
        <time>2026-05-09T07:14:45Z</time>
        <extensions>
          <gpxtpx:TrackPointExtension></gpxtpx:TrackPointExtension>
        </extensions>
      </trkpt>
      <trkpt lat="23.115967" lon="113.321073">
        <ele>10.81</ele>
        <time>2026-05-09T07:14:50Z</time>
        <extensions>
          <gpxtpx:TrackPointExtension></gpxtpx:TrackPointExtension>
        </extensions>
      </trkpt>
      <trkpt lat="23.115955" lon="113.321218">
        <ele>10.71</ele>
        <time>2026-05-09T07:14:55Z</time>
        <extensions>
          <gpxtpx:TrackPointExtension></gpxtpx:TrackPointExtension>
        </extensions>
      </trkpt>
      <trkpt lat="23.11593" lon="113.321361">
        <ele>10.52</ele>
        <time>2026-05-09T07:15:00Z</time>
        <extensions>
          <gpxtpx:TrackPointExtension></gpxtpx:TrackPointExtension>
        </extensions>
      </trkpt>
      <trkpt lat="23.11588" lon="113.321552">
        <ele>10.64</ele>
        <time>2026-05-09T07:15:05Z</time>
        <extensions>
          <gpxtpx:TrackPointExtension></gpxtpx:TrackPointExtension>
        </extensions>
      </trkpt>
      <trkpt lat="23.115815" lon="113.321558">
        <ele>10.78</ele>
        <time>2026-05-09T07:15:10Z</time>
        <extensions>
          <gpxtpx:TrackPointExtension></gpxtpx:TrackPointExtension>
        </extensions>
      </trkpt>
      <trkpt lat="23.115651" lon="113.321568">
        <ele>10.93</ele>
        <time>2026-05-09T07:15:15Z</time>
        <extensions>
          <gpxtpx:TrackPointExtension></gpxtpx:TrackPointExtension>
        </extensions>
      </trkpt>
      <trkpt lat="23.115505" lon="113.321536">
        <ele>11.11</ele>
        <time>2026-05-09T07:15:20Z</time>
        <extensions>
          <gpxtpx:TrackPointExtension></gpxtpx:TrackPointExtension>
        </extensions>
      </trkpt>
      <trkpt lat="23.115331" lon="113.321523">
        <ele>11.18</ele>
        <time>2026-05-09T07:15:25Z</time>
        <extensions>
          <gpxtpx:TrackPointExtension></gpxtpx:TrackPointExtension>
        </extensions>
      </trkpt>
      <trkpt lat="23.115177" lon="113.3215">
        <ele>11.03</ele>
        <time>2026-05-09T07:15:30Z</time>
        <extensions>
          <gpxtpx:TrackPointExtension></gpxtpx:TrackPointExtension>
        </extensions>
      </trkpt>
      <trkpt lat="23.115038" lon="113.321503">
        <ele>11.08</ele>
        <time>2026-05-09T07:15:35Z</time>
        <extensions>
          <gpxtpx:TrackPointExtension></gpxtpx:TrackPointExtension>
        </extensions>
      </trkpt>
      <trkpt lat="23.114895" lon="113.321502">
        <ele>10.74</ele>
        <time>2026-05-09T07:15:40Z</time>
        <extensions>
          <gpxtpx:TrackPointExtension></gpxtpx:TrackPointExtension>
        </extensions>
      </trkpt>
      <trkpt lat="23.114757" lon="113.321547">
        <ele>10.81</ele>
        <time>2026-05-09T07:15:45Z</time>
        <extensions>
          <gpxtpx:TrackPointExtension></gpxtpx:TrackPointExtension>
        </extensions>
      </trkpt>
      <trkpt lat="23.114779" lon="113.321667">
        <ele>10.13</ele>
        <time>2026-05-09T07:15:50Z</time>
        <extensions>
          <gpxtpx:TrackPointExtension></gpxtpx:TrackPointExtension>
        </extensions>
      </trkpt>
      <trkpt lat="23.114762" lon="113.321795">
        <ele>9.93</ele>
        <time>2026-05-09T07:15:55Z</time>
        <extensions>
          <gpxtpx:TrackPointExtension></gpxtpx:TrackPointExtension>
        </extensions>
      </trkpt>
      <trkpt lat="23.114744" lon="113.321961">
        <ele>9.82</ele>
        <time>2026-05-09T07:16:00Z</time>
        <extensions>
          <gpxtpx:TrackPointExtension></gpxtpx:TrackPointExtension>
        </extensions>
      </trkpt>
      <trkpt lat="23.114741" lon="113.322099">
        <ele>9.94</ele>
        <time>2026-05-09T07:16:05Z</time>
        <extensions>
          <gpxtpx:TrackPointExtension></gpxtpx:TrackPointExtension>
        </extensions>
      </trkpt>
      <trkpt lat="23.114728" lon="113.322249">
        <ele>10.15</ele>
        <time>2026-05-09T07:16:10Z</time>
        <extensions>
          <gpxtpx:TrackPointExtension></gpxtpx:TrackPointExtension>
        </extensions>
      </trkpt>
      <trkpt lat="23.114727" lon="113.322399">
        <ele>10.06</ele>
        <time>2026-05-09T07:16:15Z</time>
        <extensions>
          <gpxtpx:TrackPointExtension></gpxtpx:TrackPointExtension>
        </extensions>
      </trkpt>
      <trkpt lat="23.114725" lon="113.322524">
        <ele>9.94</ele>
        <time>2026-05-09T07:16:20Z</time>
        <extensions>
          <gpxtpx:TrackPointExtension></gpxtpx:TrackPointExtension>
        </extensions>
      </trkpt>
      <trkpt lat="23.114713" lon="113.322679">
        <ele>10.07</ele>
        <time>2026-05-09T07:16:25Z</time>
        <extensions>
          <gpxtpx:TrackPointExtension></gpxtpx:TrackPointExtension>
        </extensions>
      </trkpt>
      <trkpt lat="23.114697" lon="113.32281">
        <ele>9.93</ele>
        <time>2026-05-09T07:16:30Z</time>
        <extensions>
          <gpxtpx:TrackPointExtension></gpxtpx:TrackPointExtension>
        </extensions>
      </trkpt>
      <trkpt lat="23.114673" lon="113.322959">
        <ele>9.83</ele>
        <time>2026-05-09T07:16:35Z</time>
        <extensions>
          <gpxtpx:TrackPointExtension></gpxtpx:TrackPointExtension>
        </extensions>
      </trkpt>
      <trkpt lat="23.11465" lon="113.3231">
        <ele>10.05</ele>
        <time>2026-05-09T07:16:40Z</time>
        <extensions>
          <gpxtpx:TrackPointExtension></gpxtpx:TrackPointExtension>
        </extensions>
      </trkpt>
      <trkpt lat="23.114633" lon="113.323243">
        <ele>10.01</ele>
        <time>2026-05-09T07:16:45Z</time>
        <extensions>
          <gpxtpx:TrackPointExtension></gpxtpx:TrackPointExtension>
        </extensions>
      </trkpt>
      <trkpt lat="23.114616" lon="113.323383">
        <ele>9.94</ele>
        <time>2026-05-09T07:16:50Z</time>
        <extensions>
          <gpxtpx:TrackPointExtension></gpxtpx:TrackPointExtension>
        </extensions>
      </trkpt>
      <trkpt lat="23.114598" lon="113.32352">
        <ele>9.91</ele>
        <time>2026-05-09T07:16:55Z</time>
        <extensions>
          <gpxtpx:TrackPointExtension></gpxtpx:TrackPointExtension>
        </extensions>
      </trkpt>
      <trkpt lat="23.114585" lon="113.323654">
        <ele>9.72</ele>
        <time>2026-05-09T07:17:00Z</time>
        <extensions>
          <gpxtpx:TrackPointExtension></gpxtpx:TrackPointExtension>
        </extensions>
      </trkpt>
      <trkpt lat="23.114549" lon="113.323821">
        <ele>9.41</ele>
        <time>2026-05-09T07:17:05Z</time>
        <extensions>
          <gpxtpx:TrackPointExtension></gpxtpx:TrackPointExtension>
        </extensions>
      </trkpt>
      <trkpt lat="23.114524" lon="113.323962">
        <ele>9.51</ele>
        <time>2026-05-09T07:17:10Z</time>
        <extensions>
          <gpxtpx:TrackPointExtension></gpxtpx:TrackPointExtension>
        </extensions>
      </trkpt>
      <trkpt lat="23.114517" lon="113.324108">
        <ele>9.51</ele>
        <time>2026-05-09T07:17:15Z</time>
        <extensions>
          <gpxtpx:TrackPointExtension></gpxtpx:TrackPointExtension>
        </extensions>
      </trkpt>
      <trkpt lat="23.114486" lon="113.324242">
        <ele>9.6</ele>
        <time>2026-05-09T07:17:20Z</time>
        <extensions>
          <gpxtpx:TrackPointExtension></gpxtpx:TrackPointExtension>
        </extensions>
      </trkpt>
      <trkpt lat="23.114489" lon="113.324353">
        <ele>9.4</ele>
        <time>2026-05-09T07:17:25Z</time>
        <extensions>
          <gpxtpx:TrackPointExtension></gpxtpx:TrackPointExtension>
        </extensions>
      </trkpt>
      <trkpt lat="23.11443" lon="113.324457">
        <ele>9.37</ele>
        <time>2026-05-09T07:17:30Z</time>
        <extensions>
          <gpxtpx:TrackPointExtension></gpxtpx:TrackPointExtension>
        </extensions>
      </trkpt>
      <trkpt lat="23.114369" lon="113.324579">
        <ele>9.35</ele>
        <time>2026-05-09T07:17:35Z</time>
        <extensions>
          <gpxtpx:TrackPointExtension></gpxtpx:TrackPointExtension>
        </extensions>
      </trkpt>
      <trkpt lat="23.114251" lon="113.324601">
        <ele>9.34</ele>
        <time>2026-05-09T07:17:40Z</time>
        <extensions>
          <gpxtpx:TrackPointExtension></gpxtpx:TrackPointExtension>
        </extensions>
      </trkpt>
      <trkpt lat="23.114127" lon="113.324619">
        <ele>9.35</ele>
        <time>2026-05-09T07:17:45Z</time>
        <extensions>
          <gpxtpx:TrackPointExtension></gpxtpx:TrackPointExtension>
        </extensions>
      </trkpt>
      <trkpt lat="23.114025" lon="113.324636">
        <ele>9.35</ele>
        <time>2026-05-09T07:17:50Z</time>
        <extensions>
          <gpxtpx:TrackPointExtension></gpxtpx:TrackPointExtension>
        </extensions>
      </trkpt>
      <trkpt lat="23.113875" lon="113.324639">
        <ele>9.33</ele>
        <time>2026-05-09T07:17:55Z</time>
        <extensions>
          <gpxtpx:TrackPointExtension></gpxtpx:TrackPointExtension>
        </extensions>
      </trkpt>
      <trkpt lat="23.11377" lon="113.324595">
        <ele>9.41</ele>
        <time>2026-05-09T07:18:00Z</time>
        <extensions>
          <gpxtpx:TrackPointExtension></gpxtpx:TrackPointExtension>
        </extensions>
      </trkpt>
      <trkpt lat="23.113665" lon="113.324445">
        <ele>9.33</ele>
        <time>2026-05-09T07:18:05Z</time>
        <extensions>
          <gpxtpx:TrackPointExtension></gpxtpx:TrackPointExtension>
        </extensions>
      </trkpt>
      <trkpt lat="23.113608" lon="113.324314">
        <ele>9.33</ele>
        <time>2026-05-09T07:18:10Z</time>
        <extensions>
          <gpxtpx:TrackPointExtension></gpxtpx:TrackPointExtension>
        </extensions>
      </trkpt>
      <trkpt lat="23.113598" lon="113.324187">
        <ele>9.3</ele>
        <time>2026-05-09T07:18:15Z</time>
        <extensions>
          <gpxtpx:TrackPointExtension></gpxtpx:TrackPointExtension>
        </extensions>
      </trkpt>
      <trkpt lat="23.113589" lon="113.324079">
        <ele>9.46</ele>
        <time>2026-05-09T07:18:20Z</time>
        <extensions>
          <gpxtpx:TrackPointExtension></gpxtpx:TrackPointExtension>
        </extensions>
      </trkpt>
      <trkpt lat="23.11358" lon="113.324178">
        <ele>9.39</ele>
        <time>2026-05-09T07:18:25Z</time>
        <extensions>
          <gpxtpx:TrackPointExtension></gpxtpx:TrackPointExtension>
        </extensions>
      </trkpt>
      <trkpt lat="23.113593" lon="113.324271">
        <ele>9.28</ele>
        <time>2026-05-09T07:18:30Z</time>
        <extensions>
          <gpxtpx:TrackPointExtension></gpxtpx:TrackPointExtension>
        </extensions>
      </trkpt>
      <trkpt lat="23.113611" lon="113.324267">
        <ele>9.27</ele>
        <time>2026-05-09T07:18:35Z</time>
        <extensions>
          <gpxtpx:TrackPointExtension></gpxtpx:TrackPointExtension>
        </extensions>
      </trkpt>
      <trkpt lat="23.113589" lon="113.324158">
        <ele>9.31</ele>
        <time>2026-05-09T07:18:40Z</time>
        <extensions>
          <gpxtpx:TrackPointExtension></gpxtpx:TrackPointExtension>
        </extensions>
      </trkpt>
      <trkpt lat="23.113589" lon="113.324021">
        <ele>9.35</ele>
        <time>2026-05-09T07:18:45Z</time>
        <extensions>
          <gpxtpx:TrackPointExtension></gpxtpx:TrackPointExtension>
        </extensions>
      </trkpt>
      <trkpt lat="23.113584" lon="113.323892">
        <ele>9.41</ele>
        <time>2026-05-09T07:18:50Z</time>
        <extensions>
          <gpxtpx:TrackPointExtension></gpxtpx:TrackPointExtension>
        </extensions>
      </trkpt>
      <trkpt lat="23.113571" lon="113.323752">
        <ele>9.54</ele>
        <time>2026-05-09T07:18:55Z</time>
        <extensions>
          <gpxtpx:TrackPointExtension></gpxtpx:TrackPointExtension>
        </extensions>
      </trkpt>
      <trkpt lat="23.113552" lon="113.323594">
        <ele>9.57</ele>
        <time>2026-05-09T07:19:00Z</time>
        <extensions>
          <gpxtpx:TrackPointExtension></gpxtpx:TrackPointExtension>
        </extensions>
      </trkpt>
      <trkpt lat="23.11354" lon="113.323438">
        <ele>9.65</ele>
        <time>2026-05-09T07:19:05Z</time>
        <extensions>
          <gpxtpx:TrackPointExtension></gpxtpx:TrackPointExtension>
        </extensions>
      </trkpt>
      <trkpt lat="23.113548" lon="113.32331">
        <ele>9.59</ele>
        <time>2026-05-09T07:19:10Z</time>
        <extensions>
          <gpxtpx:TrackPointExtension></gpxtpx:TrackPointExtension>
        </extensions>
      </trkpt>
      <trkpt lat="23.113532" lon="113.323187">
        <ele>9.53</ele>
        <time>2026-05-09T07:19:15Z</time>
        <extensions>
          <gpxtpx:TrackPointExtension></gpxtpx:TrackPointExtension>
        </extensions>
      </trkpt>
      <trkpt lat="23.113503" lon="113.323047">
        <ele>9.55</ele>
        <time>2026-05-09T07:19:20Z</time>
        <extensions>
          <gpxtpx:TrackPointExtension></gpxtpx:TrackPointExtension>
        </extensions>
      </trkpt>
      <trkpt lat="23.113464" lon="113.322913">
        <ele>9.57</ele>
        <time>2026-05-09T07:19:25Z</time>
        <extensions>
          <gpxtpx:TrackPointExtension></gpxtpx:TrackPointExtension>
        </extensions>
      </trkpt>
      <trkpt lat="23.113439" lon="113.322766">
        <ele>9.6</ele>
        <time>2026-05-09T07:19:30Z</time>
        <extensions>
          <gpxtpx:TrackPointExtension></gpxtpx:TrackPointExtension>
        </extensions>
      </trkpt>
      <trkpt lat="23.113451" lon="113.322579">
        <ele>9.61</ele>
        <time>2026-05-09T07:19:35Z</time>
        <extensions>
          <gpxtpx:TrackPointExtension></gpxtpx:TrackPointExtension>
        </extensions>
      </trkpt>
      <trkpt lat="23.113439" lon="113.322421">
        <ele>9.64</ele>
        <time>2026-05-09T07:19:40Z</time>
        <extensions>
          <gpxtpx:TrackPointExtension></gpxtpx:TrackPointExtension>
        </extensions>
      </trkpt>
      <trkpt lat="23.113425" lon="113.322291">
        <ele>9.64</ele>
        <time>2026-05-09T07:19:45Z</time>
        <extensions>
          <gpxtpx:TrackPointExtension></gpxtpx:TrackPointExtension>
        </extensions>
      </trkpt>
      <trkpt lat="23.113425" lon="113.32216">
        <ele>9.6</ele>
        <time>2026-05-09T07:19:50Z</time>
        <extensions>
          <gpxtpx:TrackPointExtension></gpxtpx:TrackPointExtension>
        </extensions>
      </trkpt>
      <trkpt lat="23.113449" lon="113.322044">
        <ele>9.65</ele>
        <time>2026-05-09T07:19:55Z</time>
        <extensions>
          <gpxtpx:TrackPointExtension></gpxtpx:TrackPointExtension>
        </extensions>
      </trkpt>
      <trkpt lat="23.113438" lon="113.321881">
        <ele>9.59</ele>
        <time>2026-05-09T07:20:00Z</time>
        <extensions>
          <gpxtpx:TrackPointExtension></gpxtpx:TrackPointExtension>
        </extensions>
      </trkpt>
      <trkpt lat="23.11344" lon="113.321734">
        <ele>9.48</ele>
        <time>2026-05-09T07:20:05Z</time>
        <extensions>
          <gpxtpx:TrackPointExtension></gpxtpx:TrackPointExtension>
        </extensions>
      </trkpt>
      <trkpt lat="23.113491" lon="113.321573">
        <ele>9.64</ele>
        <time>2026-05-09T07:20:10Z</time>
        <extensions>
          <gpxtpx:TrackPointExtension></gpxtpx:TrackPointExtension>
        </extensions>
      </trkpt>
      <trkpt lat="23.113574" lon="113.321458">
        <ele>9.74</ele>
        <time>2026-05-09T07:20:15Z</time>
        <extensions>
          <gpxtpx:TrackPointExtension></gpxtpx:TrackPointExtension>
        </extensions>
      </trkpt>
      <trkpt lat="23.113618" lon="113.321354">
        <ele>9.94</ele>
        <time>2026-05-09T07:20:20Z</time>
        <extensions>
          <gpxtpx:TrackPointExtension></gpxtpx:TrackPointExtension>
        </extensions>
      </trkpt>
      <trkpt lat="23.11357" lon="113.321193">
        <ele>9.85</ele>
        <time>2026-05-09T07:20:25Z</time>
        <extensions>
          <gpxtpx:TrackPointExtension></gpxtpx:TrackPointExtension>
        </extensions>
      </trkpt>
      <trkpt lat="23.113533" lon="113.321037">
        <ele>9.92</ele>
        <time>2026-05-09T07:20:30Z</time>
        <extensions>
          <gpxtpx:TrackPointExtension></gpxtpx:TrackPointExtension>
        </extensions>
      </trkpt>
      <trkpt lat="23.113502" lon="113.320879">
        <ele>9.83</ele>
        <time>2026-05-09T07:20:35Z</time>
        <extensions>
          <gpxtpx:TrackPointExtension></gpxtpx:TrackPointExtension>
        </extensions>
      </trkpt>
      <trkpt lat="23.113462" lon="113.320695">
        <ele>9.74</ele>
        <time>2026-05-09T07:20:40Z</time>
        <extensions>
          <gpxtpx:TrackPointExtension></gpxtpx:TrackPointExtension>
        </extensions>
      </trkpt>
      <trkpt lat="23.113432" lon="113.320537">
        <ele>9.73</ele>
        <time>2026-05-09T07:20:45Z</time>
        <extensions>
          <gpxtpx:TrackPointExtension></gpxtpx:TrackPointExtension>
        </extensions>
      </trkpt>
      <trkpt lat="23.113394" lon="113.320372">
        <ele>9.7</ele>
        <time>2026-05-09T07:20:50Z</time>
        <extensions>
          <gpxtpx:TrackPointExtension></gpxtpx:TrackPointExtension>
        </extensions>
      </trkpt>
      <trkpt lat="23.113372" lon="113.320221">
        <ele>9.66</ele>
        <time>2026-05-09T07:20:55Z</time>
        <extensions>
          <gpxtpx:TrackPointExtension></gpxtpx:TrackPointExtension>
        </extensions>
      </trkpt>
      <trkpt lat="23.113343" lon="113.320068">
        <ele>9.62</ele>
        <time>2026-05-09T07:21:00Z</time>
        <extensions>
          <gpxtpx:TrackPointExtension></gpxtpx:TrackPointExtension>
        </extensions>
      </trkpt>
      <trkpt lat="23.113331" lon="113.319916">
        <ele>9.64</ele>
        <time>2026-05-09T07:21:05Z</time>
        <extensions>
          <gpxtpx:TrackPointExtension></gpxtpx:TrackPointExtension>
        </extensions>
      </trkpt>
      <trkpt lat="23.113319" lon="113.319753">
        <ele>9.66</ele>
        <time>2026-05-09T07:21:10Z</time>
        <extensions>
          <gpxtpx:TrackPointExtension></gpxtpx:TrackPointExtension>
        </extensions>
      </trkpt>
      <trkpt lat="23.113308" lon="113.319614">
        <ele>9.62</ele>
        <time>2026-05-09T07:21:15Z</time>
        <extensions>
          <gpxtpx:TrackPointExtension></gpxtpx:TrackPointExtension>
        </extensions>
      </trkpt>
      <trkpt lat="23.113296" lon="113.319469">
        <ele>9.53</ele>
        <time>2026-05-09T07:21:20Z</time>
        <extensions>
          <gpxtpx:TrackPointExtension></gpxtpx:TrackPointExtension>
        </extensions>
      </trkpt>
      <trkpt lat="23.113293" lon="113.319331">
        <ele>9.54</ele>
        <time>2026-05-09T07:21:25Z</time>
        <extensions>
          <gpxtpx:TrackPointExtension></gpxtpx:TrackPointExtension>
        </extensions>
      </trkpt>
      <trkpt lat="23.113285" lon="113.319181">
        <ele>9.7</ele>
        <time>2026-05-09T07:21:30Z</time>
        <extensions>
          <gpxtpx:TrackPointExtension></gpxtpx:TrackPointExtension>
        </extensions>
      </trkpt>
      <trkpt lat="23.113277" lon="113.319009">
        <ele>9.71</ele>
        <time>2026-05-09T07:21:35Z</time>
        <extensions>
          <gpxtpx:TrackPointExtension></gpxtpx:TrackPointExtension>
        </extensions>
      </trkpt>
      <trkpt lat="23.113273" lon="113.318862">
        <ele>9.86</ele>
        <time>2026-05-09T07:21:40Z</time>
        <extensions>
          <gpxtpx:TrackPointExtension></gpxtpx:TrackPointExtension>
        </extensions>
      </trkpt>
      <trkpt lat="23.11328" lon="113.31871">
        <ele>9.71</ele>
        <time>2026-05-09T07:21:45Z</time>
        <extensions>
          <gpxtpx:TrackPointExtension></gpxtpx:TrackPointExtension>
        </extensions>
      </trkpt>
      <trkpt lat="23.113283" lon="113.318554">
        <ele>9.7</ele>
        <time>2026-05-09T07:21:50Z</time>
        <extensions>
          <gpxtpx:TrackPointExtension></gpxtpx:TrackPointExtension>
        </extensions>
      </trkpt>
      <trkpt lat="23.11328" lon="113.318399">
        <ele>9.69</ele>
        <time>2026-05-09T07:21:55Z</time>
        <extensions>
          <gpxtpx:TrackPointExtension></gpxtpx:TrackPointExtension>
        </extensions>
      </trkpt>
      <trkpt lat="23.113282" lon="113.318263">
        <ele>9.7</ele>
        <time>2026-05-09T07:22:00Z</time>
        <extensions>
          <gpxtpx:TrackPointExtension></gpxtpx:TrackPointExtension>
        </extensions>
      </trkpt>
      <trkpt lat="23.113301" lon="113.318107">
        <ele>9.73</ele>
        <time>2026-05-09T07:22:05Z</time>
        <extensions>
          <gpxtpx:TrackPointExtension></gpxtpx:TrackPointExtension>
        </extensions>
      </trkpt>
      <trkpt lat="23.113334" lon="113.317952">
        <ele>9.97</ele>
        <time>2026-05-09T07:22:10Z</time>
        <extensions>
          <gpxtpx:TrackPointExtension></gpxtpx:TrackPointExtension>
        </extensions>
      </trkpt>
      <trkpt lat="23.113473" lon="113.317899">
        <ele>10.13</ele>
        <time>2026-05-09T07:22:15Z</time>
        <extensions>
          <gpxtpx:TrackPointExtension></gpxtpx:TrackPointExtension>
        </extensions>
      </trkpt>
      <trkpt lat="23.113606" lon="113.317908">
        <ele>9.98</ele>
        <time>2026-05-09T07:22:20Z</time>
        <extensions>
          <gpxtpx:TrackPointExtension></gpxtpx:TrackPointExtension>
        </extensions>
      </trkpt>
      <trkpt lat="23.113733" lon="113.31791">
        <ele>10.03</ele>
        <time>2026-05-09T07:22:25Z</time>
        <extensions>
          <gpxtpx:TrackPointExtension></gpxtpx:TrackPointExtension>
        </extensions>
      </trkpt>
      <trkpt lat="23.113859" lon="113.317905">
        <ele>10.06</ele>
        <time>2026-05-09T07:22:30Z</time>
        <extensions>
          <gpxtpx:TrackPointExtension></gpxtpx:TrackPointExtension>
        </extensions>
      </trkpt>
      <trkpt lat="23.113993" lon="113.317914">
        <ele>9.98</ele>
        <time>2026-05-09T07:22:35Z</time>
        <extensions>
          <gpxtpx:TrackPointExtension></gpxtpx:TrackPointExtension>
        </extensions>
      </trkpt>
      <trkpt lat="23.114126" lon="113.317917">
        <ele>10.02</ele>
        <time>2026-05-09T07:22:40Z</time>
        <extensions>
          <gpxtpx:TrackPointExtension></gpxtpx:TrackPointExtension>
        </extensions>
      </trkpt>
      <trkpt lat="23.114266" lon="113.317905">
        <ele>9.97</ele>
        <time>2026-05-09T07:22:45Z</time>
        <extensions>
          <gpxtpx:TrackPointExtension></gpxtpx:TrackPointExtension>
        </extensions>
      </trkpt>
      <trkpt lat="23.114408" lon="113.317925">
        <ele>10.05</ele>
        <time>2026-05-09T07:22:50Z</time>
        <extensions>
          <gpxtpx:TrackPointExtension></gpxtpx:TrackPointExtension>
        </extensions>
      </trkpt>
      <trkpt lat="23.114547" lon="113.317898">
        <ele>10.08</ele>
        <time>2026-05-09T07:22:55Z</time>
        <extensions>
          <gpxtpx:TrackPointExtension></gpxtpx:TrackPointExtension>
        </extensions>
      </trkpt>
      <trkpt lat="23.114669" lon="113.317908">
        <ele>10.18</ele>
        <time>2026-05-09T07:23:00Z</time>
        <extensions>
          <gpxtpx:TrackPointExtension></gpxtpx:TrackPointExtension>
        </extensions>
      </trkpt>
      <trkpt lat="23.114785" lon="113.31794">
        <ele>10.03</ele>
        <time>2026-05-09T07:23:05Z</time>
        <extensions>
          <gpxtpx:TrackPointExtension></gpxtpx:TrackPointExtension>
        </extensions>
      </trkpt>
      <trkpt lat="23.114859" lon="113.318025">
        <ele>9.71</ele>
        <time>2026-05-09T07:23:10Z</time>
        <extensions>
          <gpxtpx:TrackPointExtension></gpxtpx:TrackPointExtension>
        </extensions>
      </trkpt>
      <trkpt lat="23.114885" lon="113.318169">
        <ele>9.75</ele>
        <time>2026-05-09T07:23:15Z</time>
        <extensions>
          <gpxtpx:TrackPointExtension></gpxtpx:TrackPointExtension>
        </extensions>
      </trkpt>
      <trkpt lat="23.114889" lon="113.318335">
        <ele>9.73</ele>
        <time>2026-05-09T07:23:20Z</time>
        <extensions>
          <gpxtpx:TrackPointExtension></gpxtpx:TrackPointExtension>
        </extensions>
      </trkpt>
      <trkpt lat="23.114896" lon="113.318475">
        <ele>9.76</ele>
        <time>2026-05-09T07:23:25Z</time>
        <extensions>
          <gpxtpx:TrackPointExtension></gpxtpx:TrackPointExtension>
        </extensions>
      </trkpt>
      <trkpt lat="23.114915" lon="113.318618">
        <ele>9.77</ele>
        <time>2026-05-09T07:23:30Z</time>
        <extensions>
          <gpxtpx:TrackPointExtension></gpxtpx:TrackPointExtension>
        </extensions>
      </trkpt>
      <trkpt lat="23.114958" lon="113.318752">
        <ele>10.1</ele>
        <time>2026-05-09T07:23:35Z</time>
        <extensions>
          <gpxtpx:TrackPointExtension></gpxtpx:TrackPointExtension>
        </extensions>
      </trkpt>
      <trkpt lat="23.115066" lon="113.318864">
        <ele>10.49</ele>
        <time>2026-05-09T07:23:40Z</time>
        <extensions>
          <gpxtpx:TrackPointExtension></gpxtpx:TrackPointExtension>
        </extensions>
      </trkpt>
      <trkpt lat="23.115191" lon="113.318927">
        <ele>10.73</ele>
        <time>2026-05-09T07:23:45Z</time>
        <extensions>
          <gpxtpx:TrackPointExtension></gpxtpx:TrackPointExtension>
        </extensions>
      </trkpt>
      <trkpt lat="23.115304" lon="113.318987">
        <ele>11.08</ele>
        <time>2026-05-09T07:23:50Z</time>
        <extensions>
          <gpxtpx:TrackPointExtension></gpxtpx:TrackPointExtension>
        </extensions>
      </trkpt>
      <trkpt lat="23.115429" lon="113.319033">
        <ele>11.44</ele>
        <time>2026-05-09T07:23:55Z</time>
        <extensions>
          <gpxtpx:TrackPointExtension></gpxtpx:TrackPointExtension>
        </extensions>
      </trkpt>
      <trkpt lat="23.115552" lon="113.319053">
        <ele>11.61</ele>
        <time>2026-05-09T07:24:00Z</time>
        <extensions>
          <gpxtpx:TrackPointExtension></gpxtpx:TrackPointExtension>
        </extensions>
      </trkpt>
      <trkpt lat="23.115644" lon="113.318958">
        <ele>11.48</ele>
        <time>2026-05-09T07:24:05Z</time>
        <extensions>
          <gpxtpx:TrackPointExtension></gpxtpx:TrackPointExtension>
        </extensions>
      </trkpt>
      <trkpt lat="23.115693" lon="113.318813">
        <ele>11.29</ele>
        <time>2026-05-09T07:24:10Z</time>
        <extensions>
          <gpxtpx:TrackPointExtension></gpxtpx:TrackPointExtension>
        </extensions>
      </trkpt>
      <trkpt lat="23.115762" lon="113.31869">
        <ele>11.19</ele>
        <time>2026-05-09T07:24:15Z</time>
        <extensions>
          <gpxtpx:TrackPointExtension></gpxtpx:TrackPointExtension>
        </extensions>
      </trkpt>
      <trkpt lat="23.115843" lon="113.31856">
        <ele>11.08</ele>
        <time>2026-05-09T07:24:20Z</time>
        <extensions>
          <gpxtpx:TrackPointExtension></gpxtpx:TrackPointExtension>
        </extensions>
      </trkpt>
      <trkpt lat="23.115918" lon="113.318449">
        <ele>11.08</ele>
        <time>2026-05-09T07:24:25Z</time>
        <extensions>
          <gpxtpx:TrackPointExtension></gpxtpx:TrackPointExtension>
        </extensions>
      </trkpt>
      <trkpt lat="23.115991" lon="113.318326">
        <ele>11.05</ele>
        <time>2026-05-09T07:24:30Z</time>
        <extensions>
          <gpxtpx:TrackPointExtension></gpxtpx:TrackPointExtension>
        </extensions>
      </trkpt>
      <trkpt lat="23.116053" lon="113.318207">
        <ele>10.93</ele>
        <time>2026-05-09T07:24:35Z</time>
        <extensions>
          <gpxtpx:TrackPointExtension></gpxtpx:TrackPointExtension>
        </extensions>
      </trkpt>
      <trkpt lat="23.116132" lon="113.318091">
        <ele>10.77</ele>
        <time>2026-05-09T07:24:40Z</time>
        <extensions>
          <gpxtpx:TrackPointExtension></gpxtpx:TrackPointExtension>
        </extensions>
      </trkpt>
      <trkpt lat="23.116221" lon="113.317928">
        <ele>10.74</ele>
        <time>2026-05-09T07:24:45Z</time>
        <extensions>
          <gpxtpx:TrackPointExtension></gpxtpx:TrackPointExtension>
        </extensions>
      </trkpt>
      <trkpt lat="23.116256" lon="113.317788">
        <ele>10.78</ele>
        <time>2026-05-09T07:24:50Z</time>
        <extensions>
          <gpxtpx:TrackPointExtension></gpxtpx:TrackPointExtension>
        </extensions>
      </trkpt>
      <trkpt lat="23.116233" lon="113.31766">
        <ele>10.61</ele>
        <time>2026-05-09T07:24:55Z</time>
        <extensions>
          <gpxtpx:TrackPointExtension></gpxtpx:TrackPointExtension>
        </extensions>
      </trkpt>
      <trkpt lat="23.116231" lon="113.317514">
        <ele>10.57</ele>
        <time>2026-05-09T07:25:00Z</time>
        <extensions>
          <gpxtpx:TrackPointExtension></gpxtpx:TrackPointExtension>
        </extensions>
      </trkpt>
      <trkpt lat="23.116234" lon="113.317366">
        <ele>10.5</ele>
        <time>2026-05-09T07:25:05Z</time>
        <extensions>
          <gpxtpx:TrackPointExtension></gpxtpx:TrackPointExtension>
        </extensions>
      </trkpt>
      <trkpt lat="23.11624" lon="113.317269">
        <ele>10.5</ele>
        <time>2026-05-09T07:25:10Z</time>
        <extensions>
          <gpxtpx:TrackPointExtension></gpxtpx:TrackPointExtension>
        </extensions>
      </trkpt>
      <trkpt lat="23.116252" lon="113.317189">
        <ele>10.41</ele>
        <time>2026-05-09T07:25:15Z</time>
        <extensions>
          <gpxtpx:TrackPointExtension></gpxtpx:TrackPointExtension>
        </extensions>
      </trkpt>
      <trkpt lat="23.116267" lon="113.316964">
        <ele>10.38</ele>
        <time>2026-05-09T07:25:20Z</time>
        <extensions>
          <gpxtpx:TrackPointExtension></gpxtpx:TrackPointExtension>
        </extensions>
      </trkpt>
      <trkpt lat="23.116274" lon="113.316842">
        <ele>10.3</ele>
        <time>2026-05-09T07:25:25Z</time>
        <extensions>
          <gpxtpx:TrackPointExtension></gpxtpx:TrackPointExtension>
        </extensions>
      </trkpt>
      <trkpt lat="23.116277" lon="113.316702">
        <ele>10.15</ele>
        <time>2026-05-09T07:25:30Z</time>
        <extensions>
          <gpxtpx:TrackPointExtension></gpxtpx:TrackPointExtension>
        </extensions>
      </trkpt>
      <trkpt lat="23.11634" lon="113.316538">
        <ele>10.12</ele>
        <time>2026-05-09T07:25:35Z</time>
        <extensions>
          <gpxtpx:TrackPointExtension></gpxtpx:TrackPointExtension>
        </extensions>
      </trkpt>
      <trkpt lat="23.116342" lon="113.316429">
        <ele>9.99</ele>
        <time>2026-05-09T07:25:40Z</time>
        <extensions>
          <gpxtpx:TrackPointExtension></gpxtpx:TrackPointExtension>
        </extensions>
      </trkpt>
      <trkpt lat="23.116377" lon="113.31635">
        <ele>9.9</ele>
        <time>2026-05-09T07:25:45Z</time>
        <extensions>
          <gpxtpx:TrackPointExtension></gpxtpx:TrackPointExtension>
        </extensions>
      </trkpt>
      <trkpt lat="23.116368" lon="113.316198">
        <ele>9.79</ele>
        <time>2026-05-09T07:25:50Z</time>
        <extensions>
          <gpxtpx:TrackPointExtension></gpxtpx:TrackPointExtension>
        </extensions>
      </trkpt>
      <trkpt lat="23.116381" lon="113.316061">
        <ele>9.54</ele>
        <time>2026-05-09T07:25:55Z</time>
        <extensions>
          <gpxtpx:TrackPointExtension></gpxtpx:TrackPointExtension>
        </extensions>
      </trkpt>
      <trkpt lat="23.116382" lon="113.315909">
        <ele>9.4</ele>
        <time>2026-05-09T07:26:00Z</time>
        <extensions>
          <gpxtpx:TrackPointExtension></gpxtpx:TrackPointExtension>
        </extensions>
      </trkpt>
      <trkpt lat="23.116395" lon="113.315751">
        <ele>9.44</ele>
        <time>2026-05-09T07:26:05Z</time>
        <extensions>
          <gpxtpx:TrackPointExtension></gpxtpx:TrackPointExtension>
        </extensions>
      </trkpt>
      <trkpt lat="23.116412" lon="113.315627">
        <ele>9.37</ele>
        <time>2026-05-09T07:26:10Z</time>
        <extensions>
          <gpxtpx:TrackPointExtension></gpxtpx:TrackPointExtension>
        </extensions>
      </trkpt>
      <trkpt lat="23.116471" lon="113.315556">
        <ele>9.36</ele>
        <time>2026-05-09T07:26:15Z</time>
        <extensions>
          <gpxtpx:TrackPointExtension></gpxtpx:TrackPointExtension>
        </extensions>
      </trkpt>
      <trkpt lat="23.116526" lon="113.315581">
        <ele>9.35</ele>
        <time>2026-05-09T07:26:20Z</time>
        <extensions>
          <gpxtpx:TrackPointExtension></gpxtpx:TrackPointExtension>
        </extensions>
      </trkpt>
      <trkpt lat="23.116588" lon="113.315563">
        <ele>9.44</ele>
        <time>2026-05-09T07:26:25Z</time>
        <extensions>
          <gpxtpx:TrackPointExtension></gpxtpx:TrackPointExtension>
        </extensions>
      </trkpt>
      <trkpt lat="23.116631" lon="113.315525">
        <ele>9.37</ele>
        <time>2026-05-09T07:26:30Z</time>
        <extensions>
          <gpxtpx:TrackPointExtension></gpxtpx:TrackPointExtension>
        </extensions>
      </trkpt>
      <trkpt lat="23.116676" lon="113.315496">
        <ele>9.37</ele>
        <time>2026-05-09T07:26:35Z</time>
        <extensions>
          <gpxtpx:TrackPointExtension></gpxtpx:TrackPointExtension>
        </extensions>
      </trkpt>
      <trkpt lat="23.116743" lon="113.315481">
        <ele>9.27</ele>
        <time>2026-05-09T07:26:40Z</time>
        <extensions>
          <gpxtpx:TrackPointExtension></gpxtpx:TrackPointExtension>
        </extensions>
      </trkpt>
      <trkpt lat="23.116816" lon="113.315473">
        <ele>9.18</ele>
        <time>2026-05-09T07:26:45Z</time>
        <extensions>
          <gpxtpx:TrackPointExtension></gpxtpx:TrackPointExtension>
        </extensions>
      </trkpt>
      <trkpt lat="23.116866" lon="113.315439">
        <ele>9.05</ele>
        <time>2026-05-09T07:26:50Z</time>
        <extensions>
          <gpxtpx:TrackPointExtension></gpxtpx:TrackPointExtension>
        </extensions>
      </trkpt>
      <trkpt lat="23.116912" lon="113.31539">
        <ele>8.92</ele>
        <time>2026-05-09T07:26:55Z</time>
        <extensions>
          <gpxtpx:TrackPointExtension></gpxtpx:TrackPointExtension>
        </extensions>
      </trkpt>
      <trkpt lat="23.116977" lon="113.315304">
        <ele>9.27</ele>
        <time>2026-05-09T07:27:00Z</time>
        <extensions>
          <gpxtpx:TrackPointExtension></gpxtpx:TrackPointExtension>
        </extensions>
      </trkpt>
      <trkpt lat="23.117022" lon="113.315202">
        <ele>9.47</ele>
        <time>2026-05-09T07:27:05Z</time>
        <extensions>
          <gpxtpx:TrackPointExtension></gpxtpx:TrackPointExtension>
        </extensions>
      </trkpt>
      <trkpt lat="23.117052" lon="113.315137">
        <ele>9.66</ele>
        <time>2026-05-09T07:27:13Z</time>
        <extensions>
          <gpxtpx:TrackPointExtension></gpxtpx:TrackPointExtension>
        </extensions>
      </trkpt>
    </trkseg>
  </trk>
</gpx>